<gpx xmlns:ns3="http://www.garmin.com/xmlschemas/TrackPointExtension/v1" xmlns="http://www.topografix.com/GPX/1/1" xmlns:xsi="http://www.w3.org/2001/XMLSchema-instance" xmlns:ns2="http://www.garmin.com/xmlschemas/GpxExtensions/v3" creator="Garmin Connect" version="1.1" xsi:schemaLocation="http://www.topografix.com/GPX/1/1 http://www.topografix.com/GPX/11.xsd">
  <extensions>
<distance>739.78</distance>
<average_hr>125.0</average_hr>
<average_speed>3.013999938964844</average_speed>
<start_time>2026-09-07T11:28:20+00:00</start_time>
<end_time>2026-09-07T11:32:25.438000+00:00</end_time>
<moving_time>245.0</moving_time>
<elapsed_time>245.438</elapsed_time>
</extensions>
<metadata>
    <link href="connect.garmin.com">
      <text>Garmin Connect</text>
    </link>
    <time>2026-09-07T11:28:20.000Z</time>
  </metadata>
  <trk>
    <name>广州市 跑步</name>
    <type>running</type>
    <trkseg>
      <trkpt lat="23.16776367835700511932373046875" lon="113.41957700438797473907470703125">
        <ele>23.200000762939453125</ele>
        <time>2026-09-07T11:28:20.000Z</time>
        <extensions>
          <ns3:TrackPointExtension>
            <ns3:hr>87</ns3:hr>
            <ns3:cad>59</ns3:cad>
          </ns3:TrackPointExtension>
        </extensions>
      </trkpt>
      <trkpt lat="23.16776552237570285797119140625" lon="113.4196032397449016571044921875">
        <ele>23.200000762939453125</ele>
        <time>2026-09-07T11:28:21.000Z</time>
        <extensions>
          <ns3:TrackPointExtension>
            <ns3:hr>86</ns3:hr>
            <ns3:cad>59</ns3:cad>
          </ns3:TrackPointExtension>
        </extensions>
      </trkpt>
      <trkpt lat="23.1677672825753688812255859375" lon="113.4196283854544162750244140625">
        <ele>23</ele>
        <time>2026-09-07T11:28:22.000Z</time>
        <extensions>
          <ns3:TrackPointExtension>
            <ns3:hr>85</ns3:hr>
            <ns3:cad>59</ns3:cad>
          </ns3:TrackPointExtension>
        </extensions>
      </trkpt>
      <trkpt lat="23.16776770167052745819091796875" lon="113.419657051563262939453125">
        <ele>22.799999237060546875</ele>
        <time>2026-09-07T11:28:23.000Z</time>
        <extensions>
          <ns3:TrackPointExtension>
            <ns3:hr>85</ns3:hr>
            <ns3:cad>59</ns3:cad>
          </ns3:TrackPointExtension>
        </extensions>
      </trkpt>
      <trkpt lat="23.16776812076568603515625" lon="113.41968244872987270355224609375">
        <ele>22.6000003814697265625</ele>
        <time>2026-09-07T11:28:24.000Z</time>
        <extensions>
          <ns3:TrackPointExtension>
            <ns3:hr>85</ns3:hr>
            <ns3:cad>59</ns3:cad>
          </ns3:TrackPointExtension>
        </extensions>
      </trkpt>
      <trkpt lat="23.16776719875633716583251953125" lon="113.41971312649548053741455078125">
        <ele>22.3999996185302734375</ele>
        <time>2026-09-07T11:28:25.000Z</time>
        <extensions>
          <ns3:TrackPointExtension>
            <ns3:hr>85</ns3:hr>
            <ns3:cad>88</ns3:cad>
          </ns3:TrackPointExtension>
        </extensions>
      </trkpt>
      <trkpt lat="23.16776770167052745819091796875" lon="113.4197407029569149017333984375">
        <ele>22.3999996185302734375</ele>
        <time>2026-09-07T11:28:26.000Z</time>
        <extensions>
          <ns3:TrackPointExtension>
            <ns3:hr>85</ns3:hr>
            <ns3:cad>88</ns3:cad>
          </ns3:TrackPointExtension>
        </extensions>
      </trkpt>
      <trkpt lat="23.1677528657019138336181640625" lon="113.41977775096893310546875">
        <ele>22.200000762939453125</ele>
        <time>2026-09-07T11:28:27.000Z</time>
        <extensions>
          <ns3:TrackPointExtension>
            <ns3:hr>86</ns3:hr>
            <ns3:cad>88</ns3:cad>
          </ns3:TrackPointExtension>
        </extensions>
      </trkpt>
      <trkpt lat="23.16774867475032806396484375" lon="113.4198047406971454620361328125">
        <ele>22.200000762939453125</ele>
        <time>2026-09-07T11:28:28.000Z</time>
        <extensions>
          <ns3:TrackPointExtension>
            <ns3:hr>87</ns3:hr>
            <ns3:cad>88</ns3:cad>
          </ns3:TrackPointExtension>
        </extensions>
      </trkpt>
      <trkpt lat="23.16774171777069568634033203125" lon="113.41984321363270282745361328125">
        <ele>21.799999237060546875</ele>
        <time>2026-09-07T11:28:29.000Z</time>
        <extensions>
          <ns3:TrackPointExtension>
            <ns3:hr>88</ns3:hr>
            <ns3:cad>89</ns3:cad>
          </ns3:TrackPointExtension>
        </extensions>
      </trkpt>
      <trkpt lat="23.1677421368658542633056640625" lon="113.419870622456073760986328125">
        <ele>21.799999237060546875</ele>
        <time>2026-09-07T11:28:30.000Z</time>
        <extensions>
          <ns3:TrackPointExtension>
            <ns3:hr>88</ns3:hr>
            <ns3:cad>89</ns3:cad>
          </ns3:TrackPointExtension>
        </extensions>
      </trkpt>
      <trkpt lat="23.167736940085887908935546875" lon="113.41990808956325054168701171875">
        <ele>21.6000003814697265625</ele>
        <time>2026-09-07T11:28:31.000Z</time>
        <extensions>
          <ns3:TrackPointExtension>
            <ns3:hr>89</ns3:hr>
            <ns3:cad>88</ns3:cad>
          </ns3:TrackPointExtension>
        </extensions>
      </trkpt>
      <trkpt lat="23.16772989928722381591796875" lon="113.4199358336627483367919921875">
        <ele>21.3999996185302734375</ele>
        <time>2026-09-07T11:28:32.000Z</time>
        <extensions>
          <ns3:TrackPointExtension>
            <ns3:hr>90</ns3:hr>
            <ns3:cad>88</ns3:cad>
          </ns3:TrackPointExtension>
        </extensions>
      </trkpt>
      <trkpt lat="23.16772495396435260772705078125" lon="113.41997128911316394805908203125">
        <ele>21.200000762939453125</ele>
        <time>2026-09-07T11:28:33.000Z</time>
        <extensions>
          <ns3:TrackPointExtension>
            <ns3:hr>91</ns3:hr>
            <ns3:cad>89</ns3:cad>
          </ns3:TrackPointExtension>
        </extensions>
      </trkpt>
      <trkpt lat="23.1677223555743694305419921875" lon="113.41999978758394718170166015625">
        <ele>21.200000762939453125</ele>
        <time>2026-09-07T11:28:34.000Z</time>
        <extensions>
          <ns3:TrackPointExtension>
            <ns3:hr>92</ns3:hr>
            <ns3:cad>89</ns3:cad>
          </ns3:TrackPointExtension>
        </extensions>
      </trkpt>
      <trkpt lat="23.1677136383950710296630859375" lon="113.42004052363336086273193359375">
        <ele>21</ele>
        <time>2026-09-07T11:28:35.000Z</time>
        <extensions>
          <ns3:TrackPointExtension>
            <ns3:hr>93</ns3:hr>
            <ns3:cad>89</ns3:cad>
          </ns3:TrackPointExtension>
        </extensions>
      </trkpt>
      <trkpt lat="23.16771204583346843719482421875" lon="113.42007287777960300445556640625">
        <ele>21</ele>
        <time>2026-09-07T11:28:36.000Z</time>
        <extensions>
          <ns3:TrackPointExtension>
            <ns3:hr>94</ns3:hr>
            <ns3:cad>89</ns3:cad>
          </ns3:TrackPointExtension>
        </extensions>
      </trkpt>
      <trkpt lat="23.1677089445292949676513671875" lon="113.42011210508644580841064453125">
        <ele>21</ele>
        <time>2026-09-07T11:28:37.000Z</time>
        <extensions>
          <ns3:TrackPointExtension>
            <ns3:hr>94</ns3:hr>
            <ns3:cad>90</ns3:cad>
          </ns3:TrackPointExtension>
        </extensions>
      </trkpt>
      <trkpt lat="23.16771137528121471405029296875" lon="113.42014051973819732666015625">
        <ele>20.799999237060546875</ele>
        <time>2026-09-07T11:28:38.000Z</time>
        <extensions>
          <ns3:TrackPointExtension>
            <ns3:hr>96</ns3:hr>
            <ns3:cad>89</ns3:cad>
          </ns3:TrackPointExtension>
        </extensions>
      </trkpt>
      <trkpt lat="23.16771154291927814483642578125" lon="113.4201725386083126068115234375">
        <ele>20.6000003814697265625</ele>
        <time>2026-09-07T11:28:39.000Z</time>
        <extensions>
          <ns3:TrackPointExtension>
            <ns3:hr>98</ns3:hr>
            <ns3:cad>89</ns3:cad>
          </ns3:TrackPointExtension>
        </extensions>
      </trkpt>
      <trkpt lat="23.167709447443485260009765625" lon="113.4202027134597301483154296875">
        <ele>20.6000003814697265625</ele>
        <time>2026-09-07T11:28:40.000Z</time>
        <extensions>
          <ns3:TrackPointExtension>
            <ns3:hr>99</ns3:hr>
            <ns3:cad>89</ns3:cad>
          </ns3:TrackPointExtension>
        </extensions>
      </trkpt>
      <trkpt lat="23.167706094682216644287109375" lon="113.4202258475124835968017578125">
        <ele>20.3999996185302734375</ele>
        <time>2026-09-07T11:28:41.000Z</time>
        <extensions>
          <ns3:TrackPointExtension>
            <ns3:hr>100</ns3:hr>
            <ns3:cad>89</ns3:cad>
          </ns3:TrackPointExtension>
        </extensions>
      </trkpt>
      <trkpt lat="23.1677052564918994903564453125" lon="113.42025442980229854583740234375">
        <ele>20.200000762939453125</ele>
        <time>2026-09-07T11:28:42.000Z</time>
        <extensions>
          <ns3:TrackPointExtension>
            <ns3:hr>101</ns3:hr>
            <ns3:cad>89</ns3:cad>
          </ns3:TrackPointExtension>
        </extensions>
      </trkpt>
      <trkpt lat="23.1677076034247875213623046875" lon="113.42028535902500152587890625">
        <ele>20.200000762939453125</ele>
        <time>2026-09-07T11:28:43.000Z</time>
        <extensions>
          <ns3:TrackPointExtension>
            <ns3:hr>102</ns3:hr>
            <ns3:cad>88</ns3:cad>
          </ns3:TrackPointExtension>
        </extensions>
      </trkpt>
      <trkpt lat="23.16771154291927814483642578125" lon="113.42031243257224559783935546875">
        <ele>20</ele>
        <time>2026-09-07T11:28:44.000Z</time>
        <extensions>
          <ns3:TrackPointExtension>
            <ns3:hr>103</ns3:hr>
            <ns3:cad>88</ns3:cad>
          </ns3:TrackPointExtension>
        </extensions>
      </trkpt>
      <trkpt lat="23.16771724261343479156494140625" lon="113.42034126631915569305419921875">
        <ele>20</ele>
        <time>2026-09-07T11:28:45.000Z</time>
        <extensions>
          <ns3:TrackPointExtension>
            <ns3:hr>105</ns3:hr>
            <ns3:cad>89</ns3:cad>
          </ns3:TrackPointExtension>
        </extensions>
      </trkpt>
      <trkpt lat="23.16771724261343479156494140625" lon="113.42037445865571498870849609375">
        <ele>19.799999237060546875</ele>
        <time>2026-09-07T11:28:46.000Z</time>
        <extensions>
          <ns3:TrackPointExtension>
            <ns3:hr>106</ns3:hr>
            <ns3:cad>89</ns3:cad>
          </ns3:TrackPointExtension>
        </extensions>
      </trkpt>
      <trkpt lat="23.16771506331861019134521484375" lon="113.42040211893618106842041015625">
        <ele>19.799999237060546875</ele>
        <time>2026-09-07T11:28:47.000Z</time>
        <extensions>
          <ns3:TrackPointExtension>
            <ns3:hr>107</ns3:hr>
            <ns3:cad>88</ns3:cad>
          </ns3:TrackPointExtension>
        </extensions>
      </trkpt>
      <trkpt lat="23.167707435786724090576171875" lon="113.4204360656440258026123046875">
        <ele>19.6000003814697265625</ele>
        <time>2026-09-07T11:28:48.000Z</time>
        <extensions>
          <ns3:TrackPointExtension>
            <ns3:hr>107</ns3:hr>
            <ns3:cad>88</ns3:cad>
          </ns3:TrackPointExtension>
        </extensions>
      </trkpt>
      <trkpt lat="23.16770684905350208282470703125" lon="113.42045995406806468963623046875">
        <ele>19.3999996185302734375</ele>
        <time>2026-09-07T11:28:49.000Z</time>
        <extensions>
          <ns3:TrackPointExtension>
            <ns3:hr>108</ns3:hr>
            <ns3:cad>88</ns3:cad>
          </ns3:TrackPointExtension>
        </extensions>
      </trkpt>
      <trkpt lat="23.16769930534064769744873046875" lon="113.42049616388976573944091796875">
        <ele>19.3999996185302734375</ele>
        <time>2026-09-07T11:28:50.000Z</time>
        <extensions>
          <ns3:TrackPointExtension>
            <ns3:hr>108</ns3:hr>
            <ns3:cad>87</ns3:cad>
          </ns3:TrackPointExtension>
        </extensions>
      </trkpt>
      <trkpt lat="23.16769997589290142059326171875" lon="113.4205245785415172576904296875">
        <ele>19.200000762939453125</ele>
        <time>2026-09-07T11:28:51.000Z</time>
        <extensions>
          <ns3:TrackPointExtension>
            <ns3:hr>108</ns3:hr>
            <ns3:cad>88</ns3:cad>
          </ns3:TrackPointExtension>
        </extensions>
      </trkpt>
      <trkpt lat="23.16769695840775966644287109375" lon="113.4205597825348377227783203125">
        <ele>19</ele>
        <time>2026-09-07T11:28:52.000Z</time>
        <extensions>
          <ns3:TrackPointExtension>
            <ns3:hr>109</ns3:hr>
            <ns3:cad>88</ns3:cad>
          </ns3:TrackPointExtension>
        </extensions>
      </trkpt>
      <trkpt lat="23.1676988862454891204833984375" lon="113.4205879457294940948486328125">
        <ele>19</ele>
        <time>2026-09-07T11:28:53.000Z</time>
        <extensions>
          <ns3:TrackPointExtension>
            <ns3:hr>110</ns3:hr>
            <ns3:cad>88</ns3:cad>
          </ns3:TrackPointExtension>
        </extensions>
      </trkpt>
      <trkpt lat="23.1676951982080936431884765625" lon="113.42062239535152912139892578125">
        <ele>18.799999237060546875</ele>
        <time>2026-09-07T11:28:54.000Z</time>
        <extensions>
          <ns3:TrackPointExtension>
            <ns3:hr>111</ns3:hr>
            <ns3:cad>87</ns3:cad>
          </ns3:TrackPointExtension>
        </extensions>
      </trkpt>
      <trkpt lat="23.1676968745887279510498046875" lon="113.42065324075520038604736328125">
        <ele>18.6000003814697265625</ele>
        <time>2026-09-07T11:28:55.000Z</time>
        <extensions>
          <ns3:TrackPointExtension>
            <ns3:hr>111</ns3:hr>
            <ns3:cad>88</ns3:cad>
          </ns3:TrackPointExtension>
        </extensions>
      </trkpt>
      <trkpt lat="23.1676911748945713043212890625" lon="113.42069162987172603607177734375">
        <ele>18.6000003814697265625</ele>
        <time>2026-09-07T11:28:56.000Z</time>
        <extensions>
          <ns3:TrackPointExtension>
            <ns3:hr>112</ns3:hr>
            <ns3:cad>88</ns3:cad>
          </ns3:TrackPointExtension>
        </extensions>
      </trkpt>
      <trkpt lat="23.1676945276558399200439453125" lon="113.42071929015219211578369140625">
        <ele>18.3999996185302734375</ele>
        <time>2026-09-07T11:28:57.000Z</time>
        <extensions>
          <ns3:TrackPointExtension>
            <ns3:hr>112</ns3:hr>
            <ns3:cad>88</ns3:cad>
          </ns3:TrackPointExtension>
        </extensions>
      </trkpt>
      <trkpt lat="23.1676911748945713043212890625" lon="113.42075248248875141143798828125">
        <ele>18.3999996185302734375</ele>
        <time>2026-09-07T11:28:58.000Z</time>
        <extensions>
          <ns3:TrackPointExtension>
            <ns3:hr>113</ns3:hr>
            <ns3:cad>89</ns3:cad>
          </ns3:TrackPointExtension>
        </extensions>
      </trkpt>
      <trkpt lat="23.1676928512752056121826171875" lon="113.42078265734016895294189453125">
        <ele>18.200000762939453125</ele>
        <time>2026-09-07T11:28:59.000Z</time>
        <extensions>
          <ns3:TrackPointExtension>
            <ns3:hr>114</ns3:hr>
            <ns3:cad>89</ns3:cad>
          </ns3:TrackPointExtension>
        </extensions>
      </trkpt>
      <trkpt lat="23.167694024741649627685546875" lon="113.420818112790584564208984375">
        <ele>18</ele>
        <time>2026-09-07T11:29:00.000Z</time>
        <extensions>
          <ns3:TrackPointExtension>
            <ns3:hr>114</ns3:hr>
            <ns3:cad>89</ns3:cad>
          </ns3:TrackPointExtension>
        </extensions>
      </trkpt>
      <trkpt lat="23.16769930534064769744873046875" lon="113.42084032483398914337158203125">
        <ele>18</ele>
        <time>2026-09-07T11:29:01.000Z</time>
        <extensions>
          <ns3:TrackPointExtension>
            <ns3:hr>115</ns3:hr>
            <ns3:cad>91</ns3:cad>
          </ns3:TrackPointExtension>
        </extensions>
      </trkpt>
      <trkpt lat="23.16769544966518878936767578125" lon="113.4208742715418338775634765625">
        <ele>18</ele>
        <time>2026-09-07T11:29:02.000Z</time>
        <extensions>
          <ns3:TrackPointExtension>
            <ns3:hr>115</ns3:hr>
            <ns3:cad>92</ns3:cad>
          </ns3:TrackPointExtension>
        </extensions>
      </trkpt>
      <trkpt lat="23.1676978804171085357666015625" lon="113.4208980761468410491943359375">
        <ele>18</ele>
        <time>2026-09-07T11:29:03.000Z</time>
        <extensions>
          <ns3:TrackPointExtension>
            <ns3:hr>116</ns3:hr>
            <ns3:cad>92</ns3:cad>
          </ns3:TrackPointExtension>
        </extensions>
      </trkpt>
      <trkpt lat="23.16769075579941272735595703125" lon="113.42093705199658870697021484375">
        <ele>18</ele>
        <time>2026-09-07T11:29:04.000Z</time>
        <extensions>
          <ns3:TrackPointExtension>
            <ns3:hr>116</ns3:hr>
            <ns3:cad>92</ns3:cad>
          </ns3:TrackPointExtension>
        </extensions>
      </trkpt>
      <trkpt lat="23.1676911748945713043212890625" lon="113.42096437700092792510986328125">
        <ele>17.799999237060546875</ele>
        <time>2026-09-07T11:29:05.000Z</time>
        <extensions>
          <ns3:TrackPointExtension>
            <ns3:hr>116</ns3:hr>
            <ns3:cad>89</ns3:cad>
          </ns3:TrackPointExtension>
        </extensions>
      </trkpt>
      <trkpt lat="23.167685978114604949951171875" lon="113.4210010059177875518798828125">
        <ele>17.799999237060546875</ele>
        <time>2026-09-07T11:29:06.000Z</time>
        <extensions>
          <ns3:TrackPointExtension>
            <ns3:hr>116</ns3:hr>
            <ns3:cad>88</ns3:cad>
          </ns3:TrackPointExtension>
        </extensions>
      </trkpt>
      <trkpt lat="23.1676863133907318115234375" lon="113.4210248105227947235107421875">
        <ele>17.799999237060546875</ele>
        <time>2026-09-07T11:29:07.000Z</time>
        <extensions>
          <ns3:TrackPointExtension>
            <ns3:hr>117</ns3:hr>
            <ns3:cad>88</ns3:cad>
          </ns3:TrackPointExtension>
        </extensions>
      </trkpt>
      <trkpt lat="23.16768019460141658782958984375" lon="113.42105917632579803466796875">
        <ele>17.6000003814697265625</ele>
        <time>2026-09-07T11:29:08.000Z</time>
        <extensions>
          <ns3:TrackPointExtension>
            <ns3:hr>116</ns3:hr>
            <ns3:cad>88</ns3:cad>
          </ns3:TrackPointExtension>
        </extensions>
      </trkpt>
      <trkpt lat="23.16768036223948001861572265625" lon="113.42108407057821750640869140625">
        <ele>17.6000003814697265625</ele>
        <time>2026-09-07T11:29:09.000Z</time>
        <extensions>
          <ns3:TrackPointExtension>
            <ns3:hr>116</ns3:hr>
            <ns3:cad>88</ns3:cad>
          </ns3:TrackPointExtension>
        </extensions>
      </trkpt>
      <trkpt lat="23.16767768003046512603759765625" lon="113.42111575417220592498779296875">
        <ele>17.6000003814697265625</ele>
        <time>2026-09-07T11:29:10.000Z</time>
        <extensions>
          <ns3:TrackPointExtension>
            <ns3:hr>116</ns3:hr>
            <ns3:cad>88</ns3:cad>
          </ns3:TrackPointExtension>
        </extensions>
      </trkpt>
      <trkpt lat="23.1676824577152729034423828125" lon="113.42113805003464221954345703125">
        <ele>17.6000003814697265625</ele>
        <time>2026-09-07T11:29:11.000Z</time>
        <extensions>
          <ns3:TrackPointExtension>
            <ns3:hr>116</ns3:hr>
            <ns3:cad>88</ns3:cad>
          </ns3:TrackPointExtension>
        </extensions>
      </trkpt>
      <trkpt lat="23.16768690012395381927490234375" lon="113.42116738669574260711669921875">
        <ele>17.6000003814697265625</ele>
        <time>2026-09-07T11:29:12.000Z</time>
        <extensions>
          <ns3:TrackPointExtension>
            <ns3:hr>117</ns3:hr>
            <ns3:cad>89</ns3:cad>
          </ns3:TrackPointExtension>
        </extensions>
      </trkpt>
      <trkpt lat="23.16768690012395381927490234375" lon="113.42119454406201839447021484375">
        <ele>17.3999996185302734375</ele>
        <time>2026-09-07T11:29:13.000Z</time>
        <extensions>
          <ns3:TrackPointExtension>
            <ns3:hr>117</ns3:hr>
            <ns3:cad>89</ns3:cad>
          </ns3:TrackPointExtension>
        </extensions>
      </trkpt>
      <trkpt lat="23.1676864810287952423095703125" lon="113.421227820217609405517578125">
        <ele>17.3999996185302734375</ele>
        <time>2026-09-07T11:29:14.000Z</time>
        <extensions>
          <ns3:TrackPointExtension>
            <ns3:hr>117</ns3:hr>
            <ns3:cad>88</ns3:cad>
          </ns3:TrackPointExtension>
        </extensions>
      </trkpt>
      <trkpt lat="23.16768723540008068084716796875" lon="113.4212574921548366546630859375">
        <ele>17.200000762939453125</ele>
        <time>2026-09-07T11:29:15.000Z</time>
        <extensions>
          <ns3:TrackPointExtension>
            <ns3:hr>117</ns3:hr>
            <ns3:cad>88</ns3:cad>
          </ns3:TrackPointExtension>
        </extensions>
      </trkpt>
      <trkpt lat="23.16769058816134929656982421875" lon="113.42128791846334934234619140625">
        <ele>17.200000762939453125</ele>
        <time>2026-09-07T11:29:16.000Z</time>
        <extensions>
          <ns3:TrackPointExtension>
            <ns3:hr>117</ns3:hr>
            <ns3:cad>88</ns3:cad>
          </ns3:TrackPointExtension>
        </extensions>
      </trkpt>
      <trkpt lat="23.1676928512752056121826171875" lon="113.42131490819156169891357421875">
        <ele>17.200000762939453125</ele>
        <time>2026-09-07T11:29:17.000Z</time>
        <extensions>
          <ns3:TrackPointExtension>
            <ns3:hr>118</ns3:hr>
            <ns3:cad>88</ns3:cad>
          </ns3:TrackPointExtension>
        </extensions>
      </trkpt>
      <trkpt lat="23.1676928512752056121826171875" lon="113.42134776525199413299560546875">
        <ele>17.200000762939453125</ele>
        <time>2026-09-07T11:29:18.000Z</time>
        <extensions>
          <ns3:TrackPointExtension>
            <ns3:hr>120</ns3:hr>
            <ns3:cad>88</ns3:cad>
          </ns3:TrackPointExtension>
        </extensions>
      </trkpt>
      <trkpt lat="23.16769343800842761993408203125" lon="113.421374671161174774169921875">
        <ele>17.200000762939453125</ele>
        <time>2026-09-07T11:29:19.000Z</time>
        <extensions>
          <ns3:TrackPointExtension>
            <ns3:hr>120</ns3:hr>
            <ns3:cad>88</ns3:cad>
          </ns3:TrackPointExtension>
        </extensions>
      </trkpt>
      <trkpt lat="23.1676925159990787506103515625" lon="113.4214100427925586700439453125">
        <ele>17.200000762939453125</ele>
        <time>2026-09-07T11:29:20.000Z</time>
        <extensions>
          <ns3:TrackPointExtension>
            <ns3:hr>121</ns3:hr>
            <ns3:cad>89</ns3:cad>
          </ns3:TrackPointExtension>
        </extensions>
      </trkpt>
      <trkpt lat="23.16769310273230075836181640625" lon="113.42144030146300792694091796875">
        <ele>17.200000762939453125</ele>
        <time>2026-09-07T11:29:21.000Z</time>
        <extensions>
          <ns3:TrackPointExtension>
            <ns3:hr>122</ns3:hr>
            <ns3:cad>90</ns3:cad>
          </ns3:TrackPointExtension>
        </extensions>
      </trkpt>
      <trkpt lat="23.1676928512752056121826171875" lon="113.4214744158089160919189453125">
        <ele>17.200000762939453125</ele>
        <time>2026-09-07T11:29:22.000Z</time>
        <extensions>
          <ns3:TrackPointExtension>
            <ns3:hr>123</ns3:hr>
            <ns3:cad>90</ns3:cad>
          </ns3:TrackPointExtension>
        </extensions>
      </trkpt>
      <trkpt lat="23.1676898337900638580322265625" lon="113.42150433920323848724365234375">
        <ele>17</ele>
        <time>2026-09-07T11:29:23.000Z</time>
        <extensions>
          <ns3:TrackPointExtension>
            <ns3:hr>123</ns3:hr>
            <ns3:cad>90</ns3:cad>
          </ns3:TrackPointExtension>
        </extensions>
      </trkpt>
      <trkpt lat="23.16768840886652469635009765625" lon="113.42153384350240230560302734375">
        <ele>17</ele>
        <time>2026-09-07T11:29:24.000Z</time>
        <extensions>
          <ns3:TrackPointExtension>
            <ns3:hr>123</ns3:hr>
            <ns3:cad>90</ns3:cad>
          </ns3:TrackPointExtension>
        </extensions>
      </trkpt>
      <trkpt lat="23.16768673248589038848876953125" lon="113.42156552709639072418212890625">
        <ele>17</ele>
        <time>2026-09-07T11:29:25.000Z</time>
        <extensions>
          <ns3:TrackPointExtension>
            <ns3:hr>123</ns3:hr>
            <ns3:cad>89</ns3:cad>
          </ns3:TrackPointExtension>
        </extensions>
      </trkpt>
      <trkpt lat="23.16768974997103214263916015625" lon="113.42159050516784191131591796875">
        <ele>17</ele>
        <time>2026-09-07T11:29:26.000Z</time>
        <extensions>
          <ns3:TrackPointExtension>
            <ns3:hr>124</ns3:hr>
            <ns3:cad>89</ns3:cad>
          </ns3:TrackPointExtension>
        </extensions>
      </trkpt>
      <trkpt lat="23.167684637010097503662109375" lon="113.4216249547898769378662109375">
        <ele>16.799999237060546875</ele>
        <time>2026-09-07T11:29:27.000Z</time>
        <extensions>
          <ns3:TrackPointExtension>
            <ns3:hr>124</ns3:hr>
            <ns3:cad>89</ns3:cad>
          </ns3:TrackPointExtension>
        </extensions>
      </trkpt>
      <trkpt lat="23.16769234836101531982421875" lon="113.42164901085197925567626953125">
        <ele>17</ele>
        <time>2026-09-07T11:29:28.000Z</time>
        <extensions>
          <ns3:TrackPointExtension>
            <ns3:hr>124</ns3:hr>
            <ns3:cad>88</ns3:cad>
          </ns3:TrackPointExtension>
        </extensions>
      </trkpt>
      <trkpt lat="23.16769100725650787353515625" lon="113.4216842986643314361572265625">
        <ele>16.799999237060546875</ele>
        <time>2026-09-07T11:29:29.000Z</time>
        <extensions>
          <ns3:TrackPointExtension>
            <ns3:hr>124</ns3:hr>
            <ns3:cad>88</ns3:cad>
          </ns3:TrackPointExtension>
        </extensions>
      </trkpt>
      <trkpt lat="23.16769544966518878936767578125" lon="113.42170768417418003082275390625">
        <ele>16.799999237060546875</ele>
        <time>2026-09-07T11:29:30.000Z</time>
        <extensions>
          <ns3:TrackPointExtension>
            <ns3:hr>125</ns3:hr>
            <ns3:cad>88</ns3:cad>
          </ns3:TrackPointExtension>
        </extensions>
      </trkpt>
      <trkpt lat="23.16769410856068134307861328125" lon="113.4217476658523082733154296875">
        <ele>16.799999237060546875</ele>
        <time>2026-09-07T11:29:31.000Z</time>
        <extensions>
          <ns3:TrackPointExtension>
            <ns3:hr>125</ns3:hr>
            <ns3:cad>88</ns3:cad>
          </ns3:TrackPointExtension>
        </extensions>
      </trkpt>
      <trkpt lat="23.16769444383680820465087890625" lon="113.42177390120923519134521484375">
        <ele>16.799999237060546875</ele>
        <time>2026-09-07T11:29:32.000Z</time>
        <extensions>
          <ns3:TrackPointExtension>
            <ns3:hr>125</ns3:hr>
            <ns3:cad>89</ns3:cad>
          </ns3:TrackPointExtension>
        </extensions>
      </trkpt>
      <trkpt lat="23.1676925159990787506103515625" lon="113.42181212268769741058349609375">
        <ele>16.799999237060546875</ele>
        <time>2026-09-07T11:29:33.000Z</time>
        <extensions>
          <ns3:TrackPointExtension>
            <ns3:hr>126</ns3:hr>
            <ns3:cad>89</ns3:cad>
          </ns3:TrackPointExtension>
        </extensions>
      </trkpt>
      <trkpt lat="23.16769528202712535858154296875" lon="113.4218363463878631591796875">
        <ele>16.799999237060546875</ele>
        <time>2026-09-07T11:29:34.000Z</time>
        <extensions>
          <ns3:TrackPointExtension>
            <ns3:hr>127</ns3:hr>
            <ns3:cad>89</ns3:cad>
          </ns3:TrackPointExtension>
        </extensions>
      </trkpt>
      <trkpt lat="23.167692013084888458251953125" lon="113.42187414877116680145263671875">
        <ele>16.799999237060546875</ele>
        <time>2026-09-07T11:29:35.000Z</time>
        <extensions>
          <ns3:TrackPointExtension>
            <ns3:hr>127</ns3:hr>
            <ns3:cad>89</ns3:cad>
          </ns3:TrackPointExtension>
        </extensions>
      </trkpt>
      <trkpt lat="23.1676958687603473663330078125" lon="113.42190013267099857330322265625">
        <ele>16.799999237060546875</ele>
        <time>2026-09-07T11:29:36.000Z</time>
        <extensions>
          <ns3:TrackPointExtension>
            <ns3:hr>128</ns3:hr>
            <ns3:cad>89</ns3:cad>
          </ns3:TrackPointExtension>
        </extensions>
      </trkpt>
      <trkpt lat="23.16769695840775966644287109375" lon="113.42193852178752422332763671875">
        <ele>16.799999237060546875</ele>
        <time>2026-09-07T11:29:37.000Z</time>
        <extensions>
          <ns3:TrackPointExtension>
            <ns3:hr>128</ns3:hr>
            <ns3:cad>89</ns3:cad>
          </ns3:TrackPointExtension>
        </extensions>
      </trkpt>
      <trkpt lat="23.16769771277904510498046875" lon="113.421964086592197418212890625">
        <ele>16.6000003814697265625</ele>
        <time>2026-09-07T11:29:38.000Z</time>
        <extensions>
          <ns3:TrackPointExtension>
            <ns3:hr>128</ns3:hr>
            <ns3:cad>89</ns3:cad>
          </ns3:TrackPointExtension>
        </extensions>
      </trkpt>
      <trkpt lat="23.167695365846157073974609375" lon="113.4219997934997081756591796875">
        <ele>16.6000003814697265625</ele>
        <time>2026-09-07T11:29:39.000Z</time>
        <extensions>
          <ns3:TrackPointExtension>
            <ns3:hr>129</ns3:hr>
            <ns3:cad>89</ns3:cad>
          </ns3:TrackPointExtension>
        </extensions>
      </trkpt>
      <trkpt lat="23.16770249046385288238525390625" lon="113.42202301137149333953857421875">
        <ele>16.6000003814697265625</ele>
        <time>2026-09-07T11:29:40.000Z</time>
        <extensions>
          <ns3:TrackPointExtension>
            <ns3:hr>129</ns3:hr>
            <ns3:cad>89</ns3:cad>
          </ns3:TrackPointExtension>
        </extensions>
      </trkpt>
      <trkpt lat="23.16770232282578945159912109375" lon="113.422059305012226104736328125">
        <ele>16.6000003814697265625</ele>
        <time>2026-09-07T11:29:41.000Z</time>
        <extensions>
          <ns3:TrackPointExtension>
            <ns3:hr>129</ns3:hr>
            <ns3:cad>89</ns3:cad>
          </ns3:TrackPointExtension>
        </extensions>
      </trkpt>
      <trkpt lat="23.16770575940608978271484375" lon="113.422082103788852691650390625">
        <ele>16.3999996185302734375</ele>
        <time>2026-09-07T11:29:42.000Z</time>
        <extensions>
          <ns3:TrackPointExtension>
            <ns3:hr>129</ns3:hr>
            <ns3:cad>89</ns3:cad>
          </ns3:TrackPointExtension>
        </extensions>
      </trkpt>
      <trkpt lat="23.16770265810191631317138671875" lon="113.42211789451539516448974609375">
        <ele>16.6000003814697265625</ele>
        <time>2026-09-07T11:29:43.000Z</time>
        <extensions>
          <ns3:TrackPointExtension>
            <ns3:hr>130</ns3:hr>
            <ns3:cad>89</ns3:cad>
          </ns3:TrackPointExtension>
        </extensions>
      </trkpt>
      <trkpt lat="23.16770031116902828216552734375" lon="113.4221409447491168975830078125">
        <ele>16.3999996185302734375</ele>
        <time>2026-09-07T11:29:44.000Z</time>
        <extensions>
          <ns3:TrackPointExtension>
            <ns3:hr>130</ns3:hr>
            <ns3:cad>89</ns3:cad>
          </ns3:TrackPointExtension>
        </extensions>
      </trkpt>
      <trkpt lat="23.16769595257937908172607421875" lon="113.4221751429140567779541015625">
        <ele>16.3999996185302734375</ele>
        <time>2026-09-07T11:29:45.000Z</time>
        <extensions>
          <ns3:TrackPointExtension>
            <ns3:hr>130</ns3:hr>
            <ns3:cad>89</ns3:cad>
          </ns3:TrackPointExtension>
        </extensions>
      </trkpt>
      <trkpt lat="23.167699389159679412841796875" lon="113.422198779881000518798828125">
        <ele>16.3999996185302734375</ele>
        <time>2026-09-07T11:29:46.000Z</time>
        <extensions>
          <ns3:TrackPointExtension>
            <ns3:hr>131</ns3:hr>
            <ns3:cad>89</ns3:cad>
          </ns3:TrackPointExtension>
        </extensions>
      </trkpt>
      <trkpt lat="23.1677005626261234283447265625" lon="113.42223557643592357635498046875">
        <ele>16.3999996185302734375</ele>
        <time>2026-09-07T11:29:47.000Z</time>
        <extensions>
          <ns3:TrackPointExtension>
            <ns3:hr>131</ns3:hr>
            <ns3:cad>89</ns3:cad>
          </ns3:TrackPointExtension>
        </extensions>
      </trkpt>
      <trkpt lat="23.16770165227353572845458984375" lon="113.42226172797381877899169921875">
        <ele>16.3999996185302734375</ele>
        <time>2026-09-07T11:29:48.000Z</time>
        <extensions>
          <ns3:TrackPointExtension>
            <ns3:hr>132</ns3:hr>
            <ns3:cad>89</ns3:cad>
          </ns3:TrackPointExtension>
        </extensions>
      </trkpt>
      <trkpt lat="23.16769503057003021240234375" lon="113.4222961775958538055419921875">
        <ele>16.3999996185302734375</ele>
        <time>2026-09-07T11:29:49.000Z</time>
        <extensions>
          <ns3:TrackPointExtension>
            <ns3:hr>132</ns3:hr>
            <ns3:cad>89</ns3:cad>
          </ns3:TrackPointExtension>
        </extensions>
      </trkpt>
      <trkpt lat="23.16769360564649105072021484375" lon="113.42231788672506809234619140625">
        <ele>16.3999996185302734375</ele>
        <time>2026-09-07T11:29:50.000Z</time>
        <extensions>
          <ns3:TrackPointExtension>
            <ns3:hr>133</ns3:hr>
            <ns3:cad>89</ns3:cad>
          </ns3:TrackPointExtension>
        </extensions>
      </trkpt>
      <trkpt lat="23.16768991760909557342529296875" lon="113.42235376127064228057861328125">
        <ele>16.3999996185302734375</ele>
        <time>2026-09-07T11:29:51.000Z</time>
        <extensions>
          <ns3:TrackPointExtension>
            <ns3:hr>133</ns3:hr>
            <ns3:cad>90</ns3:cad>
          </ns3:TrackPointExtension>
        </extensions>
      </trkpt>
      <trkpt lat="23.167690671980381011962890625" lon="113.42238192446529865264892578125">
        <ele>16.3999996185302734375</ele>
        <time>2026-09-07T11:29:52.000Z</time>
        <extensions>
          <ns3:TrackPointExtension>
            <ns3:hr>134</ns3:hr>
            <ns3:cad>90</ns3:cad>
          </ns3:TrackPointExtension>
        </extensions>
      </trkpt>
      <trkpt lat="23.16768824122846126556396484375" lon="113.42241578735411167144775390625">
        <ele>16.200000762939453125</ele>
        <time>2026-09-07T11:29:53.000Z</time>
        <extensions>
          <ns3:TrackPointExtension>
            <ns3:hr>135</ns3:hr>
            <ns3:cad>90</ns3:cad>
          </ns3:TrackPointExtension>
        </extensions>
      </trkpt>
      <trkpt lat="23.16768966615200042724609375" lon="113.4224410168826580047607421875">
        <ele>16.200000762939453125</ele>
        <time>2026-09-07T11:29:54.000Z</time>
        <extensions>
          <ns3:TrackPointExtension>
            <ns3:hr>135</ns3:hr>
            <ns3:cad>90</ns3:cad>
          </ns3:TrackPointExtension>
        </extensions>
      </trkpt>
      <trkpt lat="23.167690671980381011962890625" lon="113.422471024096012115478515625">
        <ele>16.200000762939453125</ele>
        <time>2026-09-07T11:29:55.000Z</time>
        <extensions>
          <ns3:TrackPointExtension>
            <ns3:hr>136</ns3:hr>
            <ns3:cad>90</ns3:cad>
          </ns3:TrackPointExtension>
        </extensions>
      </trkpt>
      <trkpt lat="23.167691342532634735107421875" lon="113.42249658890068531036376953125">
        <ele>16.200000762939453125</ele>
        <time>2026-09-07T11:29:56.000Z</time>
        <extensions>
          <ns3:TrackPointExtension>
            <ns3:hr>136</ns3:hr>
            <ns3:cad>89</ns3:cad>
          </ns3:TrackPointExtension>
        </extensions>
      </trkpt>
      <trkpt lat="23.16768907941877841949462890625" lon="113.4225288592278957366943359375">
        <ele>16.200000762939453125</ele>
        <time>2026-09-07T11:29:57.000Z</time>
        <extensions>
          <ns3:TrackPointExtension>
            <ns3:hr>136</ns3:hr>
            <ns3:cad>88</ns3:cad>
          </ns3:TrackPointExtension>
        </extensions>
      </trkpt>
      <trkpt lat="23.16768622957170009613037109375" lon="113.422558866441249847412109375">
        <ele>16.200000762939453125</ele>
        <time>2026-09-07T11:29:58.000Z</time>
        <extensions>
          <ns3:TrackPointExtension>
            <ns3:hr>136</ns3:hr>
            <ns3:cad>88</ns3:cad>
          </ns3:TrackPointExtension>
        </extensions>
      </trkpt>
      <trkpt lat="23.167685978114604949951171875" lon="113.4225888736546039581298828125">
        <ele>16.200000762939453125</ele>
        <time>2026-09-07T11:29:59.000Z</time>
        <extensions>
          <ns3:TrackPointExtension>
            <ns3:hr>136</ns3:hr>
            <ns3:cad>88</ns3:cad>
          </ns3:TrackPointExtension>
        </extensions>
      </trkpt>
      <trkpt lat="23.167682625353336334228515625" lon="113.42261963523924350738525390625">
        <ele>16</ele>
        <time>2026-09-07T11:30:00.000Z</time>
        <extensions>
          <ns3:TrackPointExtension>
            <ns3:hr>136</ns3:hr>
            <ns3:cad>88</ns3:cad>
          </ns3:TrackPointExtension>
        </extensions>
      </trkpt>
      <trkpt lat="23.16768656484782695770263671875" lon="113.4226488880813121795654296875">
        <ele>16</ele>
        <time>2026-09-07T11:30:01.000Z</time>
        <extensions>
          <ns3:TrackPointExtension>
            <ns3:hr>136</ns3:hr>
            <ns3:cad>88</ns3:cad>
          </ns3:TrackPointExtension>
        </extensions>
      </trkpt>
      <trkpt lat="23.167685307562351226806640625" lon="113.422682918608188629150390625">
        <ele>16</ele>
        <time>2026-09-07T11:30:02.000Z</time>
        <extensions>
          <ns3:TrackPointExtension>
            <ns3:hr>137</ns3:hr>
            <ns3:cad>88</ns3:cad>
          </ns3:TrackPointExtension>
        </extensions>
      </trkpt>
      <trkpt lat="23.1676916778087615966796875" lon="113.42270672321319580078125">
        <ele>16</ele>
        <time>2026-09-07T11:30:03.000Z</time>
        <extensions>
          <ns3:TrackPointExtension>
            <ns3:hr>136</ns3:hr>
            <ns3:cad>89</ns3:cad>
          </ns3:TrackPointExtension>
        </extensions>
      </trkpt>
      <trkpt lat="23.1676918454468250274658203125" lon="113.42274494469165802001953125">
        <ele>15.80000019073486328125</ele>
        <time>2026-09-07T11:30:04.000Z</time>
        <extensions>
          <ns3:TrackPointExtension>
            <ns3:hr>136</ns3:hr>
            <ns3:cad>89</ns3:cad>
          </ns3:TrackPointExtension>
        </extensions>
      </trkpt>
      <trkpt lat="23.16770249046385288238525390625" lon="113.42276849783957004547119140625">
        <ele>15.80000019073486328125</ele>
        <time>2026-09-07T11:30:05.000Z</time>
        <extensions>
          <ns3:TrackPointExtension>
            <ns3:hr>137</ns3:hr>
            <ns3:cad>88</ns3:cad>
          </ns3:TrackPointExtension>
        </extensions>
      </trkpt>
      <trkpt lat="23.16769595257937908172607421875" lon="113.42280261218547821044921875">
        <ele>15.80000019073486328125</ele>
        <time>2026-09-07T11:30:06.000Z</time>
        <extensions>
          <ns3:TrackPointExtension>
            <ns3:hr>137</ns3:hr>
            <ns3:cad>88</ns3:cad>
          </ns3:TrackPointExtension>
        </extensions>
      </trkpt>
      <trkpt lat="23.167694695293903350830078125" lon="113.42282750643789768218994140625">
        <ele>15.80000019073486328125</ele>
        <time>2026-09-07T11:30:07.000Z</time>
        <extensions>
          <ns3:TrackPointExtension>
            <ns3:hr>137</ns3:hr>
            <ns3:cad>88</ns3:cad>
          </ns3:TrackPointExtension>
        </extensions>
      </trkpt>
      <trkpt lat="23.1676889955997467041015625" lon="113.42286296188831329345703125">
        <ele>15.80000019073486328125</ele>
        <time>2026-09-07T11:30:08.000Z</time>
        <extensions>
          <ns3:TrackPointExtension>
            <ns3:hr>136</ns3:hr>
            <ns3:cad>88</ns3:cad>
          </ns3:TrackPointExtension>
        </extensions>
      </trkpt>
      <trkpt lat="23.1676851399242877960205078125" lon="113.422887437045574188232421875">
        <ele>15.80000019073486328125</ele>
        <time>2026-09-07T11:30:09.000Z</time>
        <extensions>
          <ns3:TrackPointExtension>
            <ns3:hr>136</ns3:hr>
            <ns3:cad>88</ns3:cad>
          </ns3:TrackPointExtension>
        </extensions>
      </trkpt>
      <trkpt lat="23.16767935641109943389892578125" lon="113.42292205430567264556884765625">
        <ele>15.80000019073486328125</ele>
        <time>2026-09-07T11:30:10.000Z</time>
        <extensions>
          <ns3:TrackPointExtension>
            <ns3:hr>136</ns3:hr>
            <ns3:cad>88</ns3:cad>
          </ns3:TrackPointExtension>
        </extensions>
      </trkpt>
      <trkpt lat="23.16767784766852855682373046875" lon="113.422946445643901824951171875">
        <ele>15.80000019073486328125</ele>
        <time>2026-09-07T11:30:11.000Z</time>
        <extensions>
          <ns3:TrackPointExtension>
            <ns3:hr>135</ns3:hr>
            <ns3:cad>89</ns3:cad>
          </ns3:TrackPointExtension>
        </extensions>
      </trkpt>
      <trkpt lat="23.167669884860515594482421875" lon="113.42298441566526889801025390625">
        <ele>15.80000019073486328125</ele>
        <time>2026-09-07T11:30:12.000Z</time>
        <extensions>
          <ns3:TrackPointExtension>
            <ns3:hr>135</ns3:hr>
            <ns3:cad>89</ns3:cad>
          </ns3:TrackPointExtension>
        </extensions>
      </trkpt>
      <trkpt lat="23.16766929812729358673095703125" lon="113.42301207594573497772216796875">
        <ele>15.80000019073486328125</ele>
        <time>2026-09-07T11:30:13.000Z</time>
        <extensions>
          <ns3:TrackPointExtension>
            <ns3:hr>135</ns3:hr>
            <ns3:cad>89</ns3:cad>
          </ns3:TrackPointExtension>
        </extensions>
      </trkpt>
      <trkpt lat="23.167661167681217193603515625" lon="113.42304627411067485809326171875">
        <ele>15.80000019073486328125</ele>
        <time>2026-09-07T11:30:14.000Z</time>
        <extensions>
          <ns3:TrackPointExtension>
            <ns3:hr>135</ns3:hr>
            <ns3:cad>89</ns3:cad>
          </ns3:TrackPointExtension>
        </extensions>
      </trkpt>
      <trkpt lat="23.167657814919948577880859375" lon="113.423068486154079437255859375">
        <ele>15.80000019073486328125</ele>
        <time>2026-09-07T11:30:15.000Z</time>
        <extensions>
          <ns3:TrackPointExtension>
            <ns3:hr>136</ns3:hr>
            <ns3:cad>89</ns3:cad>
          </ns3:TrackPointExtension>
        </extensions>
      </trkpt>
      <trkpt lat="23.16766745410859584808349609375" lon="113.4230733476579189300537109375">
        <ele>15.80000019073486328125</ele>
        <time>2026-09-07T11:30:16.000Z</time>
        <extensions>
          <ns3:TrackPointExtension>
            <ns3:hr>136</ns3:hr>
            <ns3:cad>88</ns3:cad>
          </ns3:TrackPointExtension>
        </extensions>
      </trkpt>
      <trkpt lat="23.16767902113497257232666015625" lon="113.4230782091617584228515625">
        <ele>15.80000019073486328125</ele>
        <time>2026-09-07T11:30:17.000Z</time>
        <extensions>
          <ns3:TrackPointExtension>
            <ns3:hr>135</ns3:hr>
            <ns3:cad>88</ns3:cad>
          </ns3:TrackPointExtension>
        </extensions>
      </trkpt>
      <trkpt lat="23.16769368946552276611328125" lon="113.42308080755174160003662109375">
        <ele>15.80000019073486328125</ele>
        <time>2026-09-07T11:30:18.000Z</time>
        <extensions>
          <ns3:TrackPointExtension>
            <ns3:hr>135</ns3:hr>
            <ns3:cad>88</ns3:cad>
          </ns3:TrackPointExtension>
        </extensions>
      </trkpt>
      <trkpt lat="23.167697377502918243408203125" lon="113.42309103347361087799072265625">
        <ele>15.6000003814697265625</ele>
        <time>2026-09-07T11:30:19.000Z</time>
        <extensions>
          <ns3:TrackPointExtension>
            <ns3:hr>135</ns3:hr>
            <ns3:cad>88</ns3:cad>
          </ns3:TrackPointExtension>
        </extensions>
      </trkpt>
      <trkpt lat="23.16770198754966259002685546875" lon="113.423108719289302825927734375">
        <ele>15.6000003814697265625</ele>
        <time>2026-09-07T11:30:20.000Z</time>
        <extensions>
          <ns3:TrackPointExtension>
            <ns3:hr>135</ns3:hr>
            <ns3:cad>88</ns3:cad>
          </ns3:TrackPointExtension>
        </extensions>
      </trkpt>
      <trkpt lat="23.16769679076969623565673828125" lon="113.42314333654940128326416015625">
        <ele>15.3999996185302734375</ele>
        <time>2026-09-07T11:30:21.000Z</time>
        <extensions>
          <ns3:TrackPointExtension>
            <ns3:hr>135</ns3:hr>
            <ns3:cad>81</ns3:cad>
          </ns3:TrackPointExtension>
        </extensions>
      </trkpt>
      <trkpt lat="23.16769561730325222015380859375" lon="113.42317082919180393218994140625">
        <ele>15.3999996185302734375</ele>
        <time>2026-09-07T11:30:22.000Z</time>
        <extensions>
          <ns3:TrackPointExtension>
            <ns3:hr>135</ns3:hr>
            <ns3:cad>81</ns3:cad>
          </ns3:TrackPointExtension>
        </extensions>
      </trkpt>
      <trkpt lat="23.16769259981811046600341796875" lon="113.42320720665156841278076171875">
        <ele>15.3999996185302734375</ele>
        <time>2026-09-07T11:30:23.000Z</time>
        <extensions>
          <ns3:TrackPointExtension>
            <ns3:hr>134</ns3:hr>
            <ns3:cad>79</ns3:cad>
          </ns3:TrackPointExtension>
        </extensions>
      </trkpt>
      <trkpt lat="23.1676941923797130584716796875" lon="113.42323713004589080810546875">
        <ele>15.3999996185302734375</ele>
        <time>2026-09-07T11:30:24.000Z</time>
        <extensions>
          <ns3:TrackPointExtension>
            <ns3:hr>134</ns3:hr>
            <ns3:cad>83</ns3:cad>
          </ns3:TrackPointExtension>
        </extensions>
      </trkpt>
      <trkpt lat="23.16769695840775966644287109375" lon="113.4232721664011478424072265625">
        <ele>15.3999996185302734375</ele>
        <time>2026-09-07T11:30:25.000Z</time>
        <extensions>
          <ns3:TrackPointExtension>
            <ns3:hr>134</ns3:hr>
            <ns3:cad>85</ns3:cad>
          </ns3:TrackPointExtension>
        </extensions>
      </trkpt>
      <trkpt lat="23.16769595257937908172607421875" lon="113.42330510728061199188232421875">
        <ele>15.3999996185302734375</ele>
        <time>2026-09-07T11:30:26.000Z</time>
        <extensions>
          <ns3:TrackPointExtension>
            <ns3:hr>133</ns3:hr>
            <ns3:cad>85</ns3:cad>
          </ns3:TrackPointExtension>
        </extensions>
      </trkpt>
      <trkpt lat="23.16769192926585674285888671875" lon="113.4233357012271881103515625">
        <ele>15.3999996185302734375</ele>
        <time>2026-09-07T11:30:27.000Z</time>
        <extensions>
          <ns3:TrackPointExtension>
            <ns3:hr>132</ns3:hr>
            <ns3:cad>86</ns3:cad>
          </ns3:TrackPointExtension>
        </extensions>
      </trkpt>
      <trkpt lat="23.16769125871360301971435546875" lon="113.4233663789927959442138671875">
        <ele>15.3999996185302734375</ele>
        <time>2026-09-07T11:30:28.000Z</time>
        <extensions>
          <ns3:TrackPointExtension>
            <ns3:hr>131</ns3:hr>
            <ns3:cad>87</ns3:cad>
          </ns3:TrackPointExtension>
        </extensions>
      </trkpt>
      <trkpt lat="23.1676863133907318115234375" lon="113.423393033444881439208984375">
        <ele>15.3999996185302734375</ele>
        <time>2026-09-07T11:30:29.000Z</time>
        <extensions>
          <ns3:TrackPointExtension>
            <ns3:hr>131</ns3:hr>
            <ns3:cad>87</ns3:cad>
          </ns3:TrackPointExtension>
        </extensions>
      </trkpt>
      <trkpt lat="23.16768203862011432647705078125" lon="113.4234243817627429962158203125">
        <ele>15.3999996185302734375</ele>
        <time>2026-09-07T11:30:30.000Z</time>
        <extensions>
          <ns3:TrackPointExtension>
            <ns3:hr>131</ns3:hr>
            <ns3:cad>87</ns3:cad>
          </ns3:TrackPointExtension>
        </extensions>
      </trkpt>
      <trkpt lat="23.167680613696575164794921875" lon="113.4234522096812725067138671875">
        <ele>15.3999996185302734375</ele>
        <time>2026-09-07T11:30:31.000Z</time>
        <extensions>
          <ns3:TrackPointExtension>
            <ns3:hr>131</ns3:hr>
            <ns3:cad>88</ns3:cad>
          </ns3:TrackPointExtension>
        </extensions>
      </trkpt>
      <trkpt lat="23.1676747463643550872802734375" lon="113.4234817139804363250732421875">
        <ele>15.3999996185302734375</ele>
        <time>2026-09-07T11:30:32.000Z</time>
        <extensions>
          <ns3:TrackPointExtension>
            <ns3:hr>131</ns3:hr>
            <ns3:cad>89</ns3:cad>
          </ns3:TrackPointExtension>
        </extensions>
      </trkpt>
      <trkpt lat="23.16767516545951366424560546875" lon="113.4235065244138240814208984375">
        <ele>15.3999996185302734375</ele>
        <time>2026-09-07T11:30:33.000Z</time>
        <extensions>
          <ns3:TrackPointExtension>
            <ns3:hr>131</ns3:hr>
            <ns3:cad>89</ns3:cad>
          </ns3:TrackPointExtension>
        </extensions>
      </trkpt>
      <trkpt lat="23.16766820847988128662109375" lon="113.4235430695116519927978515625">
        <ele>15.19999980926513671875</ele>
        <time>2026-09-07T11:30:34.000Z</time>
        <extensions>
          <ns3:TrackPointExtension>
            <ns3:hr>130</ns3:hr>
            <ns3:cad>89</ns3:cad>
          </ns3:TrackPointExtension>
        </extensions>
      </trkpt>
      <trkpt lat="23.16766728647053241729736328125" lon="113.42356880195438861846923828125">
        <ele>15.19999980926513671875</ele>
        <time>2026-09-07T11:30:35.000Z</time>
        <extensions>
          <ns3:TrackPointExtension>
            <ns3:hr>130</ns3:hr>
            <ns3:cad>89</ns3:cad>
          </ns3:TrackPointExtension>
        </extensions>
      </trkpt>
      <trkpt lat="23.167659826576709747314453125" lon="113.42360584996640682220458984375">
        <ele>15.19999980926513671875</ele>
        <time>2026-09-07T11:30:36.000Z</time>
        <extensions>
          <ns3:TrackPointExtension>
            <ns3:hr>129</ns3:hr>
            <ns3:cad>88</ns3:cad>
          </ns3:TrackPointExtension>
        </extensions>
      </trkpt>
      <trkpt lat="23.16765521652996540069580078125" lon="113.4236325882375240325927734375">
        <ele>15.19999980926513671875</ele>
        <time>2026-09-07T11:30:37.000Z</time>
        <extensions>
          <ns3:TrackPointExtension>
            <ns3:hr>128</ns3:hr>
            <ns3:cad>88</ns3:cad>
          </ns3:TrackPointExtension>
        </extensions>
      </trkpt>
      <trkpt lat="23.1676462478935718536376953125" lon="113.4236681275069713592529296875">
        <ele>15.19999980926513671875</ele>
        <time>2026-09-07T11:30:38.000Z</time>
        <extensions>
          <ns3:TrackPointExtension>
            <ns3:hr>128</ns3:hr>
            <ns3:cad>89</ns3:cad>
          </ns3:TrackPointExtension>
        </extensions>
      </trkpt>
      <trkpt lat="23.16764540970325469970703125" lon="113.42369176447391510009765625">
        <ele>15.19999980926513671875</ele>
        <time>2026-09-07T11:30:39.000Z</time>
        <extensions>
          <ns3:TrackPointExtension>
            <ns3:hr>128</ns3:hr>
            <ns3:cad>89</ns3:cad>
          </ns3:TrackPointExtension>
        </extensions>
      </trkpt>
      <trkpt lat="23.1676412187516689300537109375" lon="113.423729650676250457763671875">
        <ele>15.19999980926513671875</ele>
        <time>2026-09-07T11:30:40.000Z</time>
        <extensions>
          <ns3:TrackPointExtension>
            <ns3:hr>128</ns3:hr>
            <ns3:cad>89</ns3:cad>
          </ns3:TrackPointExtension>
        </extensions>
      </trkpt>
      <trkpt lat="23.16764432005584239959716796875" lon="113.4237536229193210601806640625">
        <ele>15.19999980926513671875</ele>
        <time>2026-09-07T11:30:41.000Z</time>
        <extensions>
          <ns3:TrackPointExtension>
            <ns3:hr>128</ns3:hr>
            <ns3:cad>89</ns3:cad>
          </ns3:TrackPointExtension>
        </extensions>
      </trkpt>
      <trkpt lat="23.1676433980464935302734375" lon="113.42378941364586353302001953125">
        <ele>15.19999980926513671875</ele>
        <time>2026-09-07T11:30:42.000Z</time>
        <extensions>
          <ns3:TrackPointExtension>
            <ns3:hr>128</ns3:hr>
            <ns3:cad>89</ns3:cad>
          </ns3:TrackPointExtension>
        </extensions>
      </trkpt>
      <trkpt lat="23.16764448769390583038330078125" lon="113.42381648719310760498046875">
        <ele>15.3999996185302734375</ele>
        <time>2026-09-07T11:30:43.000Z</time>
        <extensions>
          <ns3:TrackPointExtension>
            <ns3:hr>128</ns3:hr>
            <ns3:cad>89</ns3:cad>
          </ns3:TrackPointExtension>
        </extensions>
      </trkpt>
      <trkpt lat="23.167643733322620391845703125" lon="113.42384490184485912322998046875">
        <ele>15.3999996185302734375</ele>
        <time>2026-09-07T11:30:44.000Z</time>
        <extensions>
          <ns3:TrackPointExtension>
            <ns3:hr>129</ns3:hr>
            <ns3:cad>88</ns3:cad>
          </ns3:TrackPointExtension>
        </extensions>
      </trkpt>
      <trkpt lat="23.16764750517904758453369140625" lon="113.4238708019256591796875">
        <ele>15.3999996185302734375</ele>
        <time>2026-09-07T11:30:45.000Z</time>
        <extensions>
          <ns3:TrackPointExtension>
            <ns3:hr>129</ns3:hr>
            <ns3:cad>88</ns3:cad>
          </ns3:TrackPointExtension>
        </extensions>
      </trkpt>
      <trkpt lat="23.1676465831696987152099609375" lon="113.42390441335737705230712890625">
        <ele>15.3999996185302734375</ele>
        <time>2026-09-07T11:30:46.000Z</time>
        <extensions>
          <ns3:TrackPointExtension>
            <ns3:hr>129</ns3:hr>
            <ns3:cad>88</ns3:cad>
          </ns3:TrackPointExtension>
        </extensions>
      </trkpt>
      <trkpt lat="23.16764918155968189239501953125" lon="113.42393257655203342437744140625">
        <ele>15.19999980926513671875</ele>
        <time>2026-09-07T11:30:47.000Z</time>
        <extensions>
          <ns3:TrackPointExtension>
            <ns3:hr>129</ns3:hr>
            <ns3:cad>88</ns3:cad>
          </ns3:TrackPointExtension>
        </extensions>
      </trkpt>
      <trkpt lat="23.167648427188396453857421875" lon="113.4239673614501953125">
        <ele>15.19999980926513671875</ele>
        <time>2026-09-07T11:30:48.000Z</time>
        <extensions>
          <ns3:TrackPointExtension>
            <ns3:hr>130</ns3:hr>
            <ns3:cad>88</ns3:cad>
          </ns3:TrackPointExtension>
        </extensions>
      </trkpt>
      <trkpt lat="23.16764733754098415374755859375" lon="113.4239970333874225616455078125">
        <ele>15</ele>
        <time>2026-09-07T11:30:49.000Z</time>
        <extensions>
          <ns3:TrackPointExtension>
            <ns3:hr>131</ns3:hr>
            <ns3:cad>88</ns3:cad>
          </ns3:TrackPointExtension>
        </extensions>
      </trkpt>
      <trkpt lat="23.167649097740650177001953125" lon="113.42403014190495014190673828125">
        <ele>15</ele>
        <time>2026-09-07T11:30:50.000Z</time>
        <extensions>
          <ns3:TrackPointExtension>
            <ns3:hr>131</ns3:hr>
            <ns3:cad>88</ns3:cad>
          </ns3:TrackPointExtension>
        </extensions>
      </trkpt>
      <trkpt lat="23.16765286959707736968994140625" lon="113.424062915146350860595703125">
        <ele>15</ele>
        <time>2026-09-07T11:30:51.000Z</time>
        <extensions>
          <ns3:TrackPointExtension>
            <ns3:hr>132</ns3:hr>
            <ns3:cad>89</ns3:cad>
          </ns3:TrackPointExtension>
        </extensions>
      </trkpt>
      <trkpt lat="23.16766259260475635528564453125" lon="113.4240868873894214630126953125">
        <ele>15</ele>
        <time>2026-09-07T11:30:52.000Z</time>
        <extensions>
          <ns3:TrackPointExtension>
            <ns3:hr>132</ns3:hr>
            <ns3:cad>89</ns3:cad>
          </ns3:TrackPointExtension>
        </extensions>
      </trkpt>
      <trkpt lat="23.16766074858605861663818359375" lon="113.4241261146962642669677734375">
        <ele>15</ele>
        <time>2026-09-07T11:30:53.000Z</time>
        <extensions>
          <ns3:TrackPointExtension>
            <ns3:hr>132</ns3:hr>
            <ns3:cad>89</ns3:cad>
          </ns3:TrackPointExtension>
        </extensions>
      </trkpt>
      <trkpt lat="23.1676677055656909942626953125" lon="113.42415033839643001556396484375">
        <ele>15</ele>
        <time>2026-09-07T11:30:54.000Z</time>
        <extensions>
          <ns3:TrackPointExtension>
            <ns3:hr>133</ns3:hr>
            <ns3:cad>88</ns3:cad>
          </ns3:TrackPointExtension>
        </extensions>
      </trkpt>
      <trkpt lat="23.16767089068889617919921875" lon="113.42418403364717960357666015625">
        <ele>15</ele>
        <time>2026-09-07T11:30:55.000Z</time>
        <extensions>
          <ns3:TrackPointExtension>
            <ns3:hr>133</ns3:hr>
            <ns3:cad>88</ns3:cad>
          </ns3:TrackPointExtension>
        </extensions>
      </trkpt>
      <trkpt lat="23.1676764227449893951416015625" lon="113.42420674860477447509765625">
        <ele>15</ele>
        <time>2026-09-07T11:30:56.000Z</time>
        <extensions>
          <ns3:TrackPointExtension>
            <ns3:hr>133</ns3:hr>
            <ns3:cad>86</ns3:cad>
          </ns3:TrackPointExtension>
        </extensions>
      </trkpt>
      <trkpt lat="23.1676848046481609344482421875" lon="113.42422594316303730010986328125">
        <ele>14.80000019073486328125</ele>
        <time>2026-09-07T11:30:57.000Z</time>
        <extensions>
          <ns3:TrackPointExtension>
            <ns3:hr>133</ns3:hr>
            <ns3:cad>86</ns3:cad>
          </ns3:TrackPointExtension>
        </extensions>
      </trkpt>
      <trkpt lat="23.1676782667636871337890625" lon="113.42425209470093250274658203125">
        <ele>14.80000019073486328125</ele>
        <time>2026-09-07T11:30:58.000Z</time>
        <extensions>
          <ns3:TrackPointExtension>
            <ns3:hr>134</ns3:hr>
            <ns3:cad>85</ns3:cad>
          </ns3:TrackPointExtension>
        </extensions>
      </trkpt>
      <trkpt lat="23.16767625510692596435546875" lon="113.42426567338407039642333984375">
        <ele>15</ele>
        <time>2026-09-07T11:30:59.000Z</time>
        <extensions>
          <ns3:TrackPointExtension>
            <ns3:hr>134</ns3:hr>
            <ns3:cad>85</ns3:cad>
          </ns3:TrackPointExtension>
        </extensions>
      </trkpt>
      <trkpt lat="23.1676754169166088104248046875" lon="113.4242776595056056976318359375">
        <ele>15</ele>
        <time>2026-09-07T11:31:00.000Z</time>
        <extensions>
          <ns3:TrackPointExtension>
            <ns3:hr>134</ns3:hr>
            <ns3:cad>84</ns3:cad>
          </ns3:TrackPointExtension>
        </extensions>
      </trkpt>
      <trkpt lat="23.16767617128789424896240234375" lon="113.42428989708423614501953125">
        <ele>15</ele>
        <time>2026-09-07T11:31:01.000Z</time>
        <extensions>
          <ns3:TrackPointExtension>
            <ns3:hr>133</ns3:hr>
            <ns3:cad>84</ns3:cad>
          </ns3:TrackPointExtension>
        </extensions>
      </trkpt>
      <trkpt lat="23.1676797755062580108642578125" lon="113.4243001230061054229736328125">
        <ele>15</ele>
        <time>2026-09-07T11:31:02.000Z</time>
        <extensions>
          <ns3:TrackPointExtension>
            <ns3:hr>134</ns3:hr>
            <ns3:cad>83</ns3:cad>
          </ns3:TrackPointExtension>
        </extensions>
      </trkpt>
      <trkpt lat="23.1676780991256237030029296875" lon="113.424328453838825225830078125">
        <ele>15</ele>
        <time>2026-09-07T11:31:03.000Z</time>
        <extensions>
          <ns3:TrackPointExtension>
            <ns3:hr>133</ns3:hr>
            <ns3:cad>83</ns3:cad>
          </ns3:TrackPointExtension>
        </extensions>
      </trkpt>
      <trkpt lat="23.1676791049540042877197265625" lon="113.4243514202535152435302734375">
        <ele>15</ele>
        <time>2026-09-07T11:31:04.000Z</time>
        <extensions>
          <ns3:TrackPointExtension>
            <ns3:hr>133</ns3:hr>
            <ns3:cad>83</ns3:cad>
          </ns3:TrackPointExtension>
        </extensions>
      </trkpt>
      <trkpt lat="23.16767885349690914154052734375" lon="113.42438050545752048492431640625">
        <ele>15</ele>
        <time>2026-09-07T11:31:05.000Z</time>
        <extensions>
          <ns3:TrackPointExtension>
            <ns3:hr>133</ns3:hr>
            <ns3:cad>83</ns3:cad>
          </ns3:TrackPointExtension>
        </extensions>
      </trkpt>
      <trkpt lat="23.16767214797437191009521484375" lon="113.42440917156636714935302734375">
        <ele>14.80000019073486328125</ele>
        <time>2026-09-07T11:31:06.000Z</time>
        <extensions>
          <ns3:TrackPointExtension>
            <ns3:hr>134</ns3:hr>
            <ns3:cad>83</ns3:cad>
          </ns3:TrackPointExtension>
        </extensions>
      </trkpt>
      <trkpt lat="23.16767499782145023345947265625" lon="113.4244328923523426055908203125">
        <ele>14.80000019073486328125</ele>
        <time>2026-09-07T11:31:07.000Z</time>
        <extensions>
          <ns3:TrackPointExtension>
            <ns3:hr>133</ns3:hr>
            <ns3:cad>83</ns3:cad>
          </ns3:TrackPointExtension>
        </extensions>
      </trkpt>
      <trkpt lat="23.1676680408418178558349609375" lon="113.424468934535980224609375">
        <ele>14.80000019073486328125</ele>
        <time>2026-09-07T11:31:08.000Z</time>
        <extensions>
          <ns3:TrackPointExtension>
            <ns3:hr>133</ns3:hr>
            <ns3:cad>83</ns3:cad>
          </ns3:TrackPointExtension>
        </extensions>
      </trkpt>
      <trkpt lat="23.16766728647053241729736328125" lon="113.42449315823614597320556640625">
        <ele>14.80000019073486328125</ele>
        <time>2026-09-07T11:31:09.000Z</time>
        <extensions>
          <ns3:TrackPointExtension>
            <ns3:hr>133</ns3:hr>
            <ns3:cad>83</ns3:cad>
          </ns3:TrackPointExtension>
        </extensions>
      </trkpt>
      <trkpt lat="23.167663514614105224609375" lon="113.42452618293464183807373046875">
        <ele>14.80000019073486328125</ele>
        <time>2026-09-07T11:31:10.000Z</time>
        <extensions>
          <ns3:TrackPointExtension>
            <ns3:hr>132</ns3:hr>
            <ns3:cad>84</ns3:cad>
          </ns3:TrackPointExtension>
        </extensions>
      </trkpt>
      <trkpt lat="23.16766242496669292449951171875" lon="113.42454847879707813262939453125">
        <ele>14.80000019073486328125</ele>
        <time>2026-09-07T11:31:11.000Z</time>
        <extensions>
          <ns3:TrackPointExtension>
            <ns3:hr>132</ns3:hr>
            <ns3:cad>85</ns3:cad>
          </ns3:TrackPointExtension>
        </extensions>
      </trkpt>
      <trkpt lat="23.16766628064215183258056640625" lon="113.424579910933971405029296875">
        <ele>14.6000003814697265625</ele>
        <time>2026-09-07T11:31:12.000Z</time>
        <extensions>
          <ns3:TrackPointExtension>
            <ns3:hr>132</ns3:hr>
            <ns3:cad>85</ns3:cad>
          </ns3:TrackPointExtension>
        </extensions>
      </trkpt>
      <trkpt lat="23.16766426898539066314697265625" lon="113.42460715211927890777587890625">
        <ele>14.6000003814697265625</ele>
        <time>2026-09-07T11:31:13.000Z</time>
        <extensions>
          <ns3:TrackPointExtension>
            <ns3:hr>132</ns3:hr>
            <ns3:cad>87</ns3:cad>
          </ns3:TrackPointExtension>
        </extensions>
      </trkpt>
      <trkpt lat="23.1676660291850566864013671875" lon="113.4246338903903961181640625">
        <ele>14.6000003814697265625</ele>
        <time>2026-09-07T11:31:14.000Z</time>
        <extensions>
          <ns3:TrackPointExtension>
            <ns3:hr>132</ns3:hr>
            <ns3:cad>87</ns3:cad>
          </ns3:TrackPointExtension>
        </extensions>
      </trkpt>
      <trkpt lat="23.16766410134732723236083984375" lon="113.42466716654598712921142578125">
        <ele>14.3999996185302734375</ele>
        <time>2026-09-07T11:31:15.000Z</time>
        <extensions>
          <ns3:TrackPointExtension>
            <ns3:hr>131</ns3:hr>
            <ns3:cad>88</ns3:cad>
          </ns3:TrackPointExtension>
        </extensions>
      </trkpt>
      <trkpt lat="23.16766695119440555572509765625" lon="113.42469231225550174713134765625">
        <ele>14.3999996185302734375</ele>
        <time>2026-09-07T11:31:16.000Z</time>
        <extensions>
          <ns3:TrackPointExtension>
            <ns3:hr>131</ns3:hr>
            <ns3:cad>88</ns3:cad>
          </ns3:TrackPointExtension>
        </extensions>
      </trkpt>
      <trkpt lat="23.16766225732862949371337890625" lon="113.42472575604915618896484375">
        <ele>14.3999996185302734375</ele>
        <time>2026-09-07T11:31:17.000Z</time>
        <extensions>
          <ns3:TrackPointExtension>
            <ns3:hr>130</ns3:hr>
            <ns3:cad>88</ns3:cad>
          </ns3:TrackPointExtension>
        </extensions>
      </trkpt>
      <trkpt lat="23.16766192205250263214111328125" lon="113.4247465431690216064453125">
        <ele>14.3999996185302734375</ele>
        <time>2026-09-07T11:31:18.000Z</time>
        <extensions>
          <ns3:TrackPointExtension>
            <ns3:hr>130</ns3:hr>
            <ns3:cad>87</ns3:cad>
          </ns3:TrackPointExtension>
        </extensions>
      </trkpt>
      <trkpt lat="23.16765337251126766204833984375" lon="113.4247819148004055023193359375">
        <ele>14.3999996185302734375</ele>
        <time>2026-09-07T11:31:19.000Z</time>
        <extensions>
          <ns3:TrackPointExtension>
            <ns3:hr>129</ns3:hr>
            <ns3:cad>87</ns3:cad>
          </ns3:TrackPointExtension>
        </extensions>
      </trkpt>
      <trkpt lat="23.16765823401510715484619140625" lon="113.424808569252490997314453125">
        <ele>14.3999996185302734375</ele>
        <time>2026-09-07T11:31:20.000Z</time>
        <extensions>
          <ns3:TrackPointExtension>
            <ns3:hr>129</ns3:hr>
            <ns3:cad>87</ns3:cad>
          </ns3:TrackPointExtension>
        </extensions>
      </trkpt>
      <trkpt lat="23.16765555180609226226806640625" lon="113.42484871856868267059326171875">
        <ele>14.3999996185302734375</ele>
        <time>2026-09-07T11:31:21.000Z</time>
        <extensions>
          <ns3:TrackPointExtension>
            <ns3:hr>129</ns3:hr>
            <ns3:cad>88</ns3:cad>
          </ns3:TrackPointExtension>
        </extensions>
      </trkpt>
      <trkpt lat="23.16765638999640941619873046875" lon="113.42487503774464130401611328125">
        <ele>14.19999980926513671875</ele>
        <time>2026-09-07T11:31:22.000Z</time>
        <extensions>
          <ns3:TrackPointExtension>
            <ns3:hr>130</ns3:hr>
            <ns3:cad>88</ns3:cad>
          </ns3:TrackPointExtension>
        </extensions>
      </trkpt>
      <trkpt lat="23.16765655763447284698486328125" lon="113.42490412294864654541015625">
        <ele>14.19999980926513671875</ele>
        <time>2026-09-07T11:31:23.000Z</time>
        <extensions>
          <ns3:TrackPointExtension>
            <ns3:hr>130</ns3:hr>
            <ns3:cad>87</ns3:cad>
          </ns3:TrackPointExtension>
        </extensions>
      </trkpt>
      <trkpt lat="23.1676599942147731781005859375" lon="113.42492289841175079345703125">
        <ele>14.19999980926513671875</ele>
        <time>2026-09-07T11:31:24.000Z</time>
        <extensions>
          <ns3:TrackPointExtension>
            <ns3:hr>130</ns3:hr>
            <ns3:cad>87</ns3:cad>
          </ns3:TrackPointExtension>
        </extensions>
      </trkpt>
      <trkpt lat="23.16766259260475635528564453125" lon="113.42494175769388675689697265625">
        <ele>14</ele>
        <time>2026-09-07T11:31:25.000Z</time>
        <extensions>
          <ns3:TrackPointExtension>
            <ns3:hr>130</ns3:hr>
            <ns3:cad>87</ns3:cad>
          </ns3:TrackPointExtension>
        </extensions>
      </trkpt>
      <trkpt lat="23.167660497128963470458984375" lon="113.42497394420206546783447265625">
        <ele>14</ele>
        <time>2026-09-07T11:31:26.000Z</time>
        <extensions>
          <ns3:TrackPointExtension>
            <ns3:hr>130</ns3:hr>
            <ns3:cad>87</ns3:cad>
          </ns3:TrackPointExtension>
        </extensions>
      </trkpt>
      <trkpt lat="23.16766376607120037078857421875" lon="113.42499992810189723968505859375">
        <ele>14</ele>
        <time>2026-09-07T11:31:27.000Z</time>
        <extensions>
          <ns3:TrackPointExtension>
            <ns3:hr>129</ns3:hr>
            <ns3:cad>85</ns3:cad>
          </ns3:TrackPointExtension>
        </extensions>
      </trkpt>
      <trkpt lat="23.16766150295734405517578125" lon="113.4250415861606597900390625">
        <ele>14</ele>
        <time>2026-09-07T11:31:28.000Z</time>
        <extensions>
          <ns3:TrackPointExtension>
            <ns3:hr>129</ns3:hr>
            <ns3:cad>85</ns3:cad>
          </ns3:TrackPointExtension>
        </extensions>
      </trkpt>
      <trkpt lat="23.16766343079507350921630859375" lon="113.4250638820230960845947265625">
        <ele>13.80000019073486328125</ele>
        <time>2026-09-07T11:31:29.000Z</time>
        <extensions>
          <ns3:TrackPointExtension>
            <ns3:hr>127</ns3:hr>
            <ns3:cad>85</ns3:cad>
          </ns3:TrackPointExtension>
        </extensions>
      </trkpt>
      <trkpt lat="23.167666532099246978759765625" lon="113.42509933747351169586181640625">
        <ele>14</ele>
        <time>2026-09-07T11:31:30.000Z</time>
        <extensions>
          <ns3:TrackPointExtension>
            <ns3:hr>126</ns3:hr>
            <ns3:cad>85</ns3:cad>
          </ns3:TrackPointExtension>
        </extensions>
      </trkpt>
      <trkpt lat="23.167659826576709747314453125" lon="113.425123728811740875244140625">
        <ele>14</ele>
        <time>2026-09-07T11:31:31.000Z</time>
        <extensions>
          <ns3:TrackPointExtension>
            <ns3:hr>125</ns3:hr>
            <ns3:cad>85</ns3:cad>
          </ns3:TrackPointExtension>
        </extensions>
      </trkpt>
      <trkpt lat="23.167658150196075439453125" lon="113.4251413308084011077880859375">
        <ele>14</ele>
        <time>2026-09-07T11:31:32.000Z</time>
        <extensions>
          <ns3:TrackPointExtension>
            <ns3:hr>125</ns3:hr>
            <ns3:cad>85</ns3:cad>
          </ns3:TrackPointExtension>
        </extensions>
      </trkpt>
      <trkpt lat="23.1676506064832210540771484375" lon="113.42517645098268985748291015625">
        <ele>14</ele>
        <time>2026-09-07T11:31:33.000Z</time>
        <extensions>
          <ns3:TrackPointExtension>
            <ns3:hr>125</ns3:hr>
            <ns3:cad>86</ns3:cad>
          </ns3:TrackPointExtension>
        </extensions>
      </trkpt>
      <trkpt lat="23.167650438845157623291015625" lon="113.4252003394067287445068359375">
        <ele>14</ele>
        <time>2026-09-07T11:31:34.000Z</time>
        <extensions>
          <ns3:TrackPointExtension>
            <ns3:hr>125</ns3:hr>
            <ns3:cad>84</ns3:cad>
          </ns3:TrackPointExtension>
        </extensions>
      </trkpt>
      <trkpt lat="23.16765152849256992340087890625" lon="113.425235040485858917236328125">
        <ele>13.80000019073486328125</ele>
        <time>2026-09-07T11:31:35.000Z</time>
        <extensions>
          <ns3:TrackPointExtension>
            <ns3:hr>125</ns3:hr>
            <ns3:cad>84</ns3:cad>
          </ns3:TrackPointExtension>
        </extensions>
      </trkpt>
      <trkpt lat="23.167649768292903900146484375" lon="113.425265215337276458740234375">
        <ele>13.80000019073486328125</ele>
        <time>2026-09-07T11:31:36.000Z</time>
        <extensions>
          <ns3:TrackPointExtension>
            <ns3:hr>125</ns3:hr>
            <ns3:cad>84</ns3:cad>
          </ns3:TrackPointExtension>
        </extensions>
      </trkpt>
      <trkpt lat="23.167646415531635284423828125" lon="113.42528977431356906890869140625">
        <ele>13.80000019073486328125</ele>
        <time>2026-09-07T11:31:37.000Z</time>
        <extensions>
          <ns3:TrackPointExtension>
            <ns3:hr>125</ns3:hr>
            <ns3:cad>83</ns3:cad>
          </ns3:TrackPointExtension>
        </extensions>
      </trkpt>
      <trkpt lat="23.16764348186552524566650390625" lon="113.4253217093646526336669921875">
        <ele>13.80000019073486328125</ele>
        <time>2026-09-07T11:31:38.000Z</time>
        <extensions>
          <ns3:TrackPointExtension>
            <ns3:hr>125</ns3:hr>
            <ns3:cad>84</ns3:cad>
          </ns3:TrackPointExtension>
        </extensions>
      </trkpt>
      <trkpt lat="23.1676489301025867462158203125" lon="113.42534559778869152069091796875">
        <ele>13.80000019073486328125</ele>
        <time>2026-09-07T11:31:39.000Z</time>
        <extensions>
          <ns3:TrackPointExtension>
            <ns3:hr>125</ns3:hr>
            <ns3:cad>85</ns3:cad>
          </ns3:TrackPointExtension>
        </extensions>
      </trkpt>
      <trkpt lat="23.1676428951323032379150390625" lon="113.42538021504878997802734375">
        <ele>13.80000019073486328125</ele>
        <time>2026-09-07T11:31:40.000Z</time>
        <extensions>
          <ns3:TrackPointExtension>
            <ns3:hr>125</ns3:hr>
            <ns3:cad>85</ns3:cad>
          </ns3:TrackPointExtension>
        </extensions>
      </trkpt>
      <trkpt lat="23.1676439009606838226318359375" lon="113.42540293000638484954833984375">
        <ele>13.80000019073486328125</ele>
        <time>2026-09-07T11:31:41.000Z</time>
        <extensions>
          <ns3:TrackPointExtension>
            <ns3:hr>125</ns3:hr>
            <ns3:cad>85</ns3:cad>
          </ns3:TrackPointExtension>
        </extensions>
      </trkpt>
      <trkpt lat="23.16763945855200290679931640625" lon="113.4254372119903564453125">
        <ele>13.80000019073486328125</ele>
        <time>2026-09-07T11:31:42.000Z</time>
        <extensions>
          <ns3:TrackPointExtension>
            <ns3:hr>126</ns3:hr>
            <ns3:cad>86</ns3:cad>
          </ns3:TrackPointExtension>
        </extensions>
      </trkpt>
      <trkpt lat="23.16764448769390583038330078125" lon="113.42546495608985424041748046875">
        <ele>13.80000019073486328125</ele>
        <time>2026-09-07T11:31:43.000Z</time>
        <extensions>
          <ns3:TrackPointExtension>
            <ns3:hr>126</ns3:hr>
            <ns3:cad>87</ns3:cad>
          </ns3:TrackPointExtension>
        </extensions>
      </trkpt>
      <trkpt lat="23.1676492653787136077880859375" lon="113.425497896969318389892578125">
        <ele>13.80000019073486328125</ele>
        <time>2026-09-07T11:31:44.000Z</time>
        <extensions>
          <ns3:TrackPointExtension>
            <ns3:hr>126</ns3:hr>
            <ns3:cad>87</ns3:cad>
          </ns3:TrackPointExtension>
        </extensions>
      </trkpt>
      <trkpt lat="23.1676506064832210540771484375" lon="113.42552916146814823150634765625">
        <ele>13.80000019073486328125</ele>
        <time>2026-09-07T11:31:45.000Z</time>
        <extensions>
          <ns3:TrackPointExtension>
            <ns3:hr>126</ns3:hr>
            <ns3:cad>87</ns3:cad>
          </ns3:TrackPointExtension>
        </extensions>
      </trkpt>
      <trkpt lat="23.16765387542545795440673828125" lon="113.42555564828217029571533203125">
        <ele>13.80000019073486328125</ele>
        <time>2026-09-07T11:31:46.000Z</time>
        <extensions>
          <ns3:TrackPointExtension>
            <ns3:hr>126</ns3:hr>
            <ns3:cad>87</ns3:cad>
          </ns3:TrackPointExtension>
        </extensions>
      </trkpt>
      <trkpt lat="23.16765001974999904632568359375" lon="113.42559118755161762237548828125">
        <ele>13.80000019073486328125</ele>
        <time>2026-09-07T11:31:47.000Z</time>
        <extensions>
          <ns3:TrackPointExtension>
            <ns3:hr>128</ns3:hr>
            <ns3:cad>87</ns3:cad>
          </ns3:TrackPointExtension>
        </extensions>
      </trkpt>
      <trkpt lat="23.1676522828638553619384765625" lon="113.4256157465279102325439453125">
        <ele>13.6000003814697265625</ele>
        <time>2026-09-07T11:31:48.000Z</time>
        <extensions>
          <ns3:TrackPointExtension>
            <ns3:hr>129</ns3:hr>
            <ns3:cad>87</ns3:cad>
          </ns3:TrackPointExtension>
        </extensions>
      </trkpt>
      <trkpt lat="23.1676465831696987152099609375" lon="113.42565371654927730560302734375">
        <ele>13.6000003814697265625</ele>
        <time>2026-09-07T11:31:49.000Z</time>
        <extensions>
          <ns3:TrackPointExtension>
            <ns3:hr>131</ns3:hr>
            <ns3:cad>87</ns3:cad>
          </ns3:TrackPointExtension>
        </extensions>
      </trkpt>
      <trkpt lat="23.16765102557837963104248046875" lon="113.42567835934460163116455078125">
        <ele>13.6000003814697265625</ele>
        <time>2026-09-07T11:31:50.000Z</time>
        <extensions>
          <ns3:TrackPointExtension>
            <ns3:hr>132</ns3:hr>
            <ns3:cad>86</ns3:cad>
          </ns3:TrackPointExtension>
        </extensions>
      </trkpt>
      <trkpt lat="23.16764851100742816925048828125" lon="113.42571892775595188140869140625">
        <ele>13.6000003814697265625</ele>
        <time>2026-09-07T11:31:51.000Z</time>
        <extensions>
          <ns3:TrackPointExtension>
            <ns3:hr>132</ns3:hr>
            <ns3:cad>86</ns3:cad>
          </ns3:TrackPointExtension>
        </extensions>
      </trkpt>
      <trkpt lat="23.16765102557837963104248046875" lon="113.42574767768383026123046875">
        <ele>13.6000003814697265625</ele>
        <time>2026-09-07T11:31:52.000Z</time>
        <extensions>
          <ns3:TrackPointExtension>
            <ns3:hr>133</ns3:hr>
            <ns3:cad>86</ns3:cad>
          </ns3:TrackPointExtension>
        </extensions>
      </trkpt>
      <trkpt lat="23.16765303723514080047607421875" lon="113.425782211124897003173828125">
        <ele>13.6000003814697265625</ele>
        <time>2026-09-07T11:31:53.000Z</time>
        <extensions>
          <ns3:TrackPointExtension>
            <ns3:hr>134</ns3:hr>
            <ns3:cad>86</ns3:cad>
          </ns3:TrackPointExtension>
        </extensions>
      </trkpt>
      <trkpt lat="23.1676549650728702545166015625" lon="113.42581431381404399871826171875">
        <ele>13.6000003814697265625</ele>
        <time>2026-09-07T11:31:54.000Z</time>
        <extensions>
          <ns3:TrackPointExtension>
            <ns3:hr>134</ns3:hr>
            <ns3:cad>87</ns3:cad>
          </ns3:TrackPointExtension>
        </extensions>
      </trkpt>
      <trkpt lat="23.1676586531102657318115234375" lon="113.42584247700870037078857421875">
        <ele>13.6000003814697265625</ele>
        <time>2026-09-07T11:31:55.000Z</time>
        <extensions>
          <ns3:TrackPointExtension>
            <ns3:hr>134</ns3:hr>
            <ns3:cad>87</ns3:cad>
          </ns3:TrackPointExtension>
        </extensions>
      </trkpt>
      <trkpt lat="23.1676553003489971160888671875" lon="113.42587701044976711273193359375">
        <ele>13.3999996185302734375</ele>
        <time>2026-09-07T11:31:56.000Z</time>
        <extensions>
          <ns3:TrackPointExtension>
            <ns3:hr>134</ns3:hr>
            <ns3:cad>87</ns3:cad>
          </ns3:TrackPointExtension>
        </extensions>
      </trkpt>
      <trkpt lat="23.16765873692929744720458984375" lon="113.4258997254073619842529296875">
        <ele>13.3999996185302734375</ele>
        <time>2026-09-07T11:31:57.000Z</time>
        <extensions>
          <ns3:TrackPointExtension>
            <ns3:hr>133</ns3:hr>
            <ns3:cad>87</ns3:cad>
          </ns3:TrackPointExtension>
        </extensions>
      </trkpt>
      <trkpt lat="23.16765337251126766204833984375" lon="113.42593652196228504180908203125">
        <ele>13.3999996185302734375</ele>
        <time>2026-09-07T11:31:58.000Z</time>
        <extensions>
          <ns3:TrackPointExtension>
            <ns3:hr>133</ns3:hr>
            <ns3:cad>87</ns3:cad>
          </ns3:TrackPointExtension>
        </extensions>
      </trkpt>
      <trkpt lat="23.167657814919948577880859375" lon="113.4259627573192119598388671875">
        <ele>13.3999996185302734375</ele>
        <time>2026-09-07T11:31:59.000Z</time>
        <extensions>
          <ns3:TrackPointExtension>
            <ns3:hr>133</ns3:hr>
            <ns3:cad>87</ns3:cad>
          </ns3:TrackPointExtension>
        </extensions>
      </trkpt>
      <trkpt lat="23.16765421070158481597900390625" lon="113.42600324191153049468994140625">
        <ele>13.3999996185302734375</ele>
        <time>2026-09-07T11:32:00.000Z</time>
        <extensions>
          <ns3:TrackPointExtension>
            <ns3:hr>134</ns3:hr>
            <ns3:cad>87</ns3:cad>
          </ns3:TrackPointExtension>
        </extensions>
      </trkpt>
      <trkpt lat="23.16765747964382171630859375" lon="113.42602754943072795867919921875">
        <ele>13.3999996185302734375</ele>
        <time>2026-09-07T11:32:01.000Z</time>
        <extensions>
          <ns3:TrackPointExtension>
            <ns3:hr>134</ns3:hr>
            <ns3:cad>87</ns3:cad>
          </ns3:TrackPointExtension>
        </extensions>
      </trkpt>
      <trkpt lat="23.16765923984348773956298828125" lon="113.42606778256595134735107421875">
        <ele>13.3999996185302734375</ele>
        <time>2026-09-07T11:32:02.000Z</time>
        <extensions>
          <ns3:TrackPointExtension>
            <ns3:hr>134</ns3:hr>
            <ns3:cad>88</ns3:cad>
          </ns3:TrackPointExtension>
        </extensions>
      </trkpt>
      <trkpt lat="23.16766158677637577056884765625" lon="113.42609770596027374267578125">
        <ele>13.3999996185302734375</ele>
        <time>2026-09-07T11:32:03.000Z</time>
        <extensions>
          <ns3:TrackPointExtension>
            <ns3:hr>134</ns3:hr>
            <ns3:cad>88</ns3:cad>
          </ns3:TrackPointExtension>
        </extensions>
      </trkpt>
      <trkpt lat="23.16766242496669292449951171875" lon="113.42613617889583110809326171875">
        <ele>13.3999996185302734375</ele>
        <time>2026-09-07T11:32:04.000Z</time>
        <extensions>
          <ns3:TrackPointExtension>
            <ns3:hr>134</ns3:hr>
            <ns3:cad>88</ns3:cad>
          </ns3:TrackPointExtension>
        </extensions>
      </trkpt>
      <trkpt lat="23.16766393370926380157470703125" lon="113.426169119775295257568359375">
        <ele>13.3999996185302734375</ele>
        <time>2026-09-07T11:32:05.000Z</time>
        <extensions>
          <ns3:TrackPointExtension>
            <ns3:hr>134</ns3:hr>
            <ns3:cad>87</ns3:cad>
          </ns3:TrackPointExtension>
        </extensions>
      </trkpt>
      <trkpt lat="23.167666532099246978759765625" lon="113.42619753442704677581787109375">
        <ele>13.19999980926513671875</ele>
        <time>2026-09-07T11:32:06.000Z</time>
        <extensions>
          <ns3:TrackPointExtension>
            <ns3:hr>134</ns3:hr>
            <ns3:cad>87</ns3:cad>
          </ns3:TrackPointExtension>
        </extensions>
      </trkpt>
      <trkpt lat="23.16766125150024890899658203125" lon="113.426230810582637786865234375">
        <ele>13.19999980926513671875</ele>
        <time>2026-09-07T11:32:07.000Z</time>
        <extensions>
          <ns3:TrackPointExtension>
            <ns3:hr>135</ns3:hr>
            <ns3:cad>87</ns3:cad>
          </ns3:TrackPointExtension>
        </extensions>
      </trkpt>
      <trkpt lat="23.167663514614105224609375" lon="113.42625469900667667388916015625">
        <ele>13.19999980926513671875</ele>
        <time>2026-09-07T11:32:08.000Z</time>
        <extensions>
          <ns3:TrackPointExtension>
            <ns3:hr>134</ns3:hr>
            <ns3:cad>88</ns3:cad>
          </ns3:TrackPointExtension>
        </extensions>
      </trkpt>
      <trkpt lat="23.1676596589386463165283203125" lon="113.4262876398861408233642578125">
        <ele>13.19999980926513671875</ele>
        <time>2026-09-07T11:32:09.000Z</time>
        <extensions>
          <ns3:TrackPointExtension>
            <ns3:hr>134</ns3:hr>
            <ns3:cad>87</ns3:cad>
          </ns3:TrackPointExtension>
        </extensions>
      </trkpt>
      <trkpt lat="23.16765773110091686248779296875" lon="113.4263127855956554412841796875">
        <ele>13.19999980926513671875</ele>
        <time>2026-09-07T11:32:10.000Z</time>
        <extensions>
          <ns3:TrackPointExtension>
            <ns3:hr>134</ns3:hr>
            <ns3:cad>87</ns3:cad>
          </ns3:TrackPointExtension>
        </extensions>
      </trkpt>
      <trkpt lat="23.16765077412128448486328125" lon="113.42635075561702251434326171875">
        <ele>13.19999980926513671875</ele>
        <time>2026-09-07T11:32:11.000Z</time>
        <extensions>
          <ns3:TrackPointExtension>
            <ns3:hr>134</ns3:hr>
            <ns3:cad>87</ns3:cad>
          </ns3:TrackPointExtension>
        </extensions>
      </trkpt>
      <trkpt lat="23.16765370778739452362060546875" lon="113.426375649869441986083984375">
        <ele>13.19999980926513671875</ele>
        <time>2026-09-07T11:32:12.000Z</time>
        <extensions>
          <ns3:TrackPointExtension>
            <ns3:hr>134</ns3:hr>
            <ns3:cad>88</ns3:cad>
          </ns3:TrackPointExtension>
        </extensions>
      </trkpt>
      <trkpt lat="23.16765211522579193115234375" lon="113.4264103509485721588134765625">
        <ele>13.19999980926513671875</ele>
        <time>2026-09-07T11:32:13.000Z</time>
        <extensions>
          <ns3:TrackPointExtension>
            <ns3:hr>133</ns3:hr>
            <ns3:cad>88</ns3:cad>
          </ns3:TrackPointExtension>
        </extensions>
      </trkpt>
      <trkpt lat="23.16765840165317058563232421875" lon="113.42643356882035732269287109375">
        <ele>13.19999980926513671875</ele>
        <time>2026-09-07T11:32:14.000Z</time>
        <extensions>
          <ns3:TrackPointExtension>
            <ns3:hr>134</ns3:hr>
            <ns3:cad>88</ns3:cad>
          </ns3:TrackPointExtension>
        </extensions>
      </trkpt>
      <trkpt lat="23.1676643528044223785400390625" lon="113.42646860517561435699462890625">
        <ele>13.19999980926513671875</ele>
        <time>2026-09-07T11:32:15.000Z</time>
        <extensions>
          <ns3:TrackPointExtension>
            <ns3:hr>134</ns3:hr>
            <ns3:cad>88</ns3:cad>
          </ns3:TrackPointExtension>
        </extensions>
      </trkpt>
      <trkpt lat="23.16766561008989810943603515625" lon="113.42649760656058788299560546875">
        <ele>13.19999980926513671875</ele>
        <time>2026-09-07T11:32:16.000Z</time>
        <extensions>
          <ns3:TrackPointExtension>
            <ns3:hr>133</ns3:hr>
            <ns3:cad>88</ns3:cad>
          </ns3:TrackPointExtension>
        </extensions>
      </trkpt>
      <trkpt lat="23.1676707230508327484130859375" lon="113.4265310503542423248291015625">
        <ele>13</ele>
        <time>2026-09-07T11:32:17.000Z</time>
        <extensions>
          <ns3:TrackPointExtension>
            <ns3:hr>134</ns3:hr>
            <ns3:cad>87</ns3:cad>
          </ns3:TrackPointExtension>
        </extensions>
      </trkpt>
      <trkpt lat="23.16766393370926380157470703125" lon="113.42656181193888187408447265625">
        <ele>13</ele>
        <time>2026-09-07T11:32:18.000Z</time>
        <extensions>
          <ns3:TrackPointExtension>
            <ns3:hr>134</ns3:hr>
            <ns3:cad>88</ns3:cad>
          </ns3:TrackPointExtension>
        </extensions>
      </trkpt>
      <trkpt lat="23.167663179337978363037109375" lon="113.42658662237226963043212890625">
        <ele>13</ele>
        <time>2026-09-07T11:32:19.000Z</time>
        <extensions>
          <ns3:TrackPointExtension>
            <ns3:hr>134</ns3:hr>
            <ns3:cad>88</ns3:cad>
          </ns3:TrackPointExtension>
        </extensions>
      </trkpt>
      <trkpt lat="23.1676556356251239776611328125" lon="113.42661939561367034912109375">
        <ele>13</ele>
        <time>2026-09-07T11:32:20.000Z</time>
        <extensions>
          <ns3:TrackPointExtension>
            <ns3:hr>133</ns3:hr>
            <ns3:cad>88</ns3:cad>
          </ns3:TrackPointExtension>
        </extensions>
      </trkpt>
      <trkpt lat="23.16766007803380489349365234375" lon="113.4266403503715991973876953125">
        <ele>13</ele>
        <time>2026-09-07T11:32:21.000Z</time>
        <extensions>
          <ns3:TrackPointExtension>
            <ns3:hr>134</ns3:hr>
            <ns3:cad>86</ns3:cad>
          </ns3:TrackPointExtension>
        </extensions>
      </trkpt>
      <trkpt lat="23.16766016185283660888671875" lon="113.4266748838126659393310546875">
        <ele>12.80000019073486328125</ele>
        <time>2026-09-07T11:32:22.000Z</time>
        <extensions>
          <ns3:TrackPointExtension>
            <ns3:hr>134</ns3:hr>
            <ns3:cad>86</ns3:cad>
          </ns3:TrackPointExtension>
        </extensions>
      </trkpt>
      <trkpt lat="23.16766150295734405517578125" lon="113.42669994570314884185791015625">
        <ele>12.80000019073486328125</ele>
        <time>2026-09-07T11:32:23.000Z</time>
        <extensions>
          <ns3:TrackPointExtension>
            <ns3:hr>133</ns3:hr>
            <ns3:cad>87</ns3:cad>
          </ns3:TrackPointExtension>
        </extensions>
      </trkpt>
      <trkpt lat="23.167665190994739532470703125" lon="113.42672534286975860595703125">
        <ele>12.80000019073486328125</ele>
        <time>2026-09-07T11:32:24.000Z</time>
        <extensions>
          <ns3:TrackPointExtension>
            <ns3:hr>134</ns3:hr>
            <ns3:cad>87</ns3:cad>
          </ns3:TrackPointExtension>
        </extensions>
      </trkpt>
      <trkpt lat="23.16765957511961460113525390625" lon="113.4267509914934635162353515625">
        <ele>12.80000019073486328125</ele>
        <time>2026-09-07T11:32:25.000Z</time>
        <extensions>
          <ns3:TrackPointExtension>
            <ns3:hr>134</ns3:hr>
            <ns3:cad>86</ns3:cad>
          </ns3:TrackPointExtension>
        </extensions>
      </trkpt>
    </trkseg>
  </trk>
</gpx>
